address,town,name,type,id,lat,long
10 New Bond Street,Worcester,Abby Kelley Foster Charter Public School,Charter School,4450105,42.3056491,-71.8016973
201 Gliniewicz Way,Abington,Abington High,Public School,10505,42.118631,-70.95358809999999
1 Ralph Hamlin Lane,Abington,Beaver Brook Elementary School,Public School,10003,42.1187337,-70.94630169999999
65 Thaxter Avenue,Abington,Center Elementary School,Public School,10002,42.1039318,-70.9443041
1071 Washington Street,Abington,Frolio Middle School,Public School,10405,42.12007639999999,-70.9460728
128 Chestnut Street,Abington,Woodsdale Elementary School,Public School,10015,42.13032750000001,-70.9727582
1 Westinghouse Plaza,Hyde Park,Academy Of the Pacific Rim Charter Public School,Charter School,4120530,42.244227,-71.13203020000002
36 Charter Rd,Acton,Acton-Boxborough Regional High,Public School,6000505,42.4794652,-71.4579741
493 Massachusetts Avenue,Boxborough,Blanchard Memorial School,Public School,6000005,42.4821128,-71.50595899999999
21 Elm Street,Acton,C.T. Douglas Elementary School,Public School,6000020,42.483175,-71.4739501
15 Charter Road,Acton,Carol Huebner Early Childhood Program,Public School,6000001,42.477794,-71.4557
80 Taylor Road,Acton,Luther Conant School,Public School,6000030,42.4752849,-71.43637009999999
11 Charter Road,Acton,McCarthy-Towne School,Public School,6000015,42.4766815,-71.4533624
11 Charter Road,Acton,Merriam School,Public School,6000010,42.4766815,-71.4533624
75 Spruce Street,Acton,Paul P Gates Elementary School,Public School,6000025,42.4792272,-71.4736762
16 Charter Rd,Acton,Raymond J Grey Junior High,Public School,6000405,42.4764217,-71.45800380000001
800 Middle Road,Acushnet,Acushnet Elementary School,Public School,30025,41.7254284,-70.9056507
708 Middle Road,Acushnet,Albert F Ford Middle School,Public School,30305,41.7232663,-70.9050673
191 Church Street,Cheshire,Cheshire Elementary,Public School,6030004,42.563831,-73.158326
125 Savoy Road,Cheshire,Hoosac Valley Middle & High School,Public School,6030505,42.5939463,-73.11565929999999
14 Commercial Street,Adams,Plunkett Elementary,Public School,6030020,42.6189883,-73.1209377
201 Forest Street,Marlborough,Advanced Math and Science Academy Charter School,Charter School,4300305,42.3324896,-71.57724
108 Perry Lane,Agawam,Agawam Early Childhood Center,Public School,50003,42.0669669,-72.6282813
760 Cooper Street,Agawam,Agawam High,Public School,50505,42.074026,-72.6439206
1305 Springfield St,Feeding Hills,Agawam Junior High,Public School,50405,42.0639714,-72.6739284
689 Main Street,Agawam,Benjamin J Phelps,Public School,50020,42.0701967,-72.6135023
31 So. Westfield Street,Feeding Hills,Clifford M Granger,Public School,50010,42.066004,-72.6774782
65 Oxford Street,Agawam,James Clark School,Public School,50030,42.0454725,-72.6314773
68 Main Street,Agawam,Roberta G. Doering School,Public School,50303,42.0884312,-72.624858
65 Begley Street,Agawam,Robinson Park,Public School,50025,42.090062,-72.64037429999999
515 Belleville Ave,New Bedford,Alma del Mar Charter School,Charter School,4090205,41.6659423,-70.92227439999999
20 South Hampton Road,Amesbury,Amesbury Elementary,Public School,70005,42.8660332,-70.93176989999999
5 Highland Street,Amesbury,Amesbury High,Public School,70505,42.8509012,-70.9421575
71 Friend Street,Amesbury,Amesbury Innovation High School,Public School,70515,42.8563118,-70.9348924
220 Main Street,Amesbury,Amesbury Middle,Public School,70013,42.8489846,-70.9294998
193 Lions Mouth Road,Amesbury,Charles C Cashman Elementary,Public School,70010,42.85582,-70.9488159
280 West Street,Amherst,Crocker Farm Elementary,Public School,80009,42.3473091,-72.51740319999999
70 So East Street,Amherst,Fort River Elementary,Public School,80020,42.37479099999999,-72.497669
71 Strong Street,Amherst,Wildwood Elementary,Public School,80050,42.3874259,-72.51291549999999
21 Mattoon Street,Amherst,Amherst Regional High,Public School,6050505,42.37985,-72.51214019999999
170 Chestnut Street,Amherst,Amherst Regional Middle School,Public School,6050405,42.3845363,-72.5104546
80 Shawsheen Road,Andover,Andover High,Public School,90505,42.6568414,-71.15503489999999
70 Shawsheen Road,Andover,Andover West Middle,Public School,90310,42.65981660000001,-71.15306029999999
15 Bancroft Street,Andover,Bancroft Elementary,Public School,90003,42.636617,-71.12517199999999
50 Bartlet Street,Andover,Doherty Middle,Public School,90305,42.654333,-71.13506799999999
90 Lovejoy Road,Andover,Henry C Sanborn Elementary,Public School,90010,42.6420026,-71.17850779999999
333 High Plain Road,Andover,High Plain Elementary,Public School,90004,42.6634341,-71.2129716
18 Magnolia Avenue,Andover,Shawsheen School,Public School,90005,42.6762646,-71.1549564
55 Woburn Street,Andover,South Elementary,Public School,90020,42.6262663,-71.1498191
58 Beacon Street,Andover,West Elementary,Public School,90025,42.6643323,-71.1702627
11 Cross Street,Andover,Wood Hill Middle School,Public School,90350,42.665289,-71.212637
263 Hamlet Street,Fall River,Argosy Collegiate Charter School,Charter School,35090305,41.6886704,-71.1615304
869 Mass Avenue,Arlington,Arlington High,Public School,100505,42.418281,-71.1617777
66 Eastern Avenue,Arlington,Brackett,Public School,100010,42.4124531,-71.1764373
185 Florence Avenue,Arlington,Cyrus E Dallin,Public School,100025,42.41771,-71.187859
52 Lake Street,Arlington,Hardy,Public School,100030,42.4043459,-71.145224
25 Columbia Road,Arlington,John A Bishop,Public School,100005,42.4244394,-71.1548265
180 Mountain Avenue,Arlington,M Norcross Stratton,Public School,100055,42.4289318,-71.1673266
869 Massachusetts Avenue,Arlington,Menotomy Preschool,Public School,100038,42.418281,-71.1617777
63 Acton Street,Arlington,Ottoson Middle,Public School,100410,42.421107,-71.175771
85 Park Avenue Ext,Arlington,Peirce,Public School,100045,42.4287164,-71.1782394
187 Everett Street,Arlington,Thompson,Public School,100050,42.4120829,-71.13851629999999
96 Williams Rd,Ashburnham,Briggs Elementary,Public School,6100025,42.615069,-71.928015
8 South Street,Westminster,Meetinghouse School,Public School,6100010,42.5436743,-71.9120212
9 Oakmont Drive,Ashburnham,Oakmont Regional High School,Public School,6100505,42.605426,-71.922534
10 Oakmont Drive,Ashburnham,Overlook Middle School,Public School,6100305,42.6030455,-71.9261878
9 Academy Hill,Westminster,Westminster Elementary,Public School,6100005,42.5426766,-71.9095663
65 East Union St.,Ashland,Ashland High,Public School,140505,42.2623997,-71.4457008
87 West Union Street,Ashland,Ashland Middle,Public School,140405,42.2517274,-71.4752665
90 Concord Street,Ashland,David Mindess,Public School,140015,42.2635673,-71.4602628
73 Fruit Street,Ashland,Henry E Warren Elementary,Public School,140010,42.24203929999999,-71.44507469999999
75 Central Street,Ashland,William Pittaway Elementary,Public School,140005,42.2580989,-71.45996939999999
215 Fitchburg Street,Marlborough,Assabet Valley Vocational High School,Public School,8010605,42.3681519,-71.5664434
1064 Pleasant Street,Athol,Athol Community Elementary School,Public School,6150020,42.5741948,-72.2189463
2363 Main Street,Athol,Athol High,Public School,6150505,42.5827999,-72.2045672
1062 Pleasant Street,Athol,Athol-Royalston Middle School,Public School,6150305,42.5742138,-72.2189441
96 Winchendon Rd,Royalston,Royalston Community School,Public School,6150050,42.680102,-72.1407665
37 Park Street,Fall River,Atlantis Charter School,Charter School,4910550,41.6940441,-71.1632114
299 Rathbun Willard Drive,Attleboro,A. Irvin Studley Elementary School,Public School,160001,41.94013899999999,-71.3034023
100 Rathbun Willard Drive,Attleboro,Attleboro Community Academy,Public School,160515,41.9393638,-71.3020011
100 Rathbun Willard Drive,Attleboro,Attleboro High,Public School,160505,41.9393638,-71.3020011
320 Rathbun Willard Drive,Attleboro,Cyril K. Brennan Middle School,Public School,160315,41.9376387,-71.3079575
7 James St,Attleboro,Early Learning Center,Public School,160008,41.9318023,-71.2805151
80 Roy Avenue,Attleboro,Hill-Roberts Elementary School,Public School,160045,41.91894930000001,-71.3523208
790 Oak Hill Avenue,Attleboro,Hyman Fine Elementary School,Public School,160040,41.9161667,-71.27203709999999
160 James Street,Attleboro,Peter Thacher Elementary School,Public School,160050,41.93312239999999,-71.280433
99 Brown Street,Attleboro,Robert J. Coelho Middle School,Public School,160305,41.909729,-71.3686764
32 Watson Avenue,Attleboro,Thomas Willett Elementary School,Public School,160035,41.9471016,-71.2918086
300 Locust Street,Attleboro,Wamsutta Middle School,Public School,160320,41.9133649,-71.2807364
9 West Street,Auburn,Auburn Middle,Public School,170305,42.18419859999999,-71.8679494
99 Auburn Street,Auburn,Auburn Senior High,Public School,170505,42.20874730000001,-71.8371779
35 Swanson Road,Auburn,Bryn Mawr,Public School,170010,42.204664,-71.844943
110 Pakachoag Street,Auburn,Pakachoag School,Public School,170025,42.2237818,-71.8151373
10 Swanson Road,Auburn,Swanson Road Intermediate School,Public School,170030,42.2056422,-71.8407746
287 West Main Street,Avon,Avon Middle High School,Public School,180510,42.1287094,-71.0419368
1 Patrick Clark Drive,Avon,Ralph D Butler,Public School,180010,42.1159975,-71.0457557
141 Washington Street,Ayer,Ayer Shirley Regional High School,Public School,6160505,42.5670466,-71.5760475
1 Hospital Road,Shirley,Ayer Shirley Regional Middle School,Public School,6160305,42.54602610000001,-71.6391742
34 Lancaster Road,Shirley,Lura A. White Elementary School,Public School,6160001,42.5398021,-71.6572043
115 Washington Street,Ayer,Page Hilltop Elementary School,Public School,6160002,42.5672436,-71.57836180000001
744 West Main Street,Hyannis,Barnstable High,Public School,200505,41.6543993,-70.3214659
895 Falmouth Road,Hyannis,Barnstable Intermediate School,Public School,200315,41.658763,-70.3201375
730 Osterville West Barnstable Road,Marston Mills,Barnstable United Elementary School,Public School,200050,41.660332,-70.3873717
658 Bay Ln,Centerville,Centerville Elementary,Public School,200010,41.646175,-70.353557
77 Old Craigville Road,Hyannis,Enoch Cobb Early Learning Center,Public School,200001,41.6501075,-70.3182928
549 West Main Street,Hyannis,Hyannis West Elementary,Public School,200025,41.6499427,-70.31623700000002
2463 Main St Route 6A,West Barnstable,West Barnstable Elementary,Public School,200005,41.6982437,-70.3271319
760 Osterville-West Barnstable Road,Marstons Mills,West Villages Elementary School,Public School,200045,41.66231579999999,-70.3889468
165 Bearses Way,Hyannis,Barnstable Community Horace Mann Charter Public School,Charter School,4270010,41.6555139,-70.2931716
2001 Roosevelt Avenue,Springfield,Baystate Academy Charter Public School,Charter School,35020405,42.134821,-72.545492
9 Mudge Way,Bedford,Bedford High,Public School,230505,42.4913839,-71.2853449
99 McMahon Road,Bedford,John Glenn Middle,Public School,230305,42.4882048,-71.2860738
410 Davis Rd,Bedford,Lt Elezer Davis,Public School,230010,42.4837065,-71.311892
66 Sweetwater Avenue,Bedford,Lt Job Lane School,Public School,230012,42.5147468,-71.2759434
142 Springfield Road,Belchertown,Belchertown High,Public School,240505,42.2664535,-72.41021429999999
59 State Street,Belchertown,Chestnut Hill Community School,Public School,240006,42.2678132,-72.4123171
57 South Main Street,Belchertown,Cold Spring,Public School,240005,42.274329,-72.394772
62 North Washington Street,Belchertown,Jabish Middle School,Public School,240025,42.2670445,-72.3990996
57 State Street,Belchertown,Swift River Elementary,Public School,240018,42.2683909,-72.41043839999999
338 Hartford Avenue,Bellingham,Bellingham Early Childhood Center,Public School,250003,42.124951,-71.458563
60 Blackstone Street,Bellingham,Bellingham High School,Public School,250505,42.0751635,-71.4684972
130 Blackstone Street,Bellingham,Bellingham Memorial School,Public School,250315,42.074644,-71.4750883
60 Harpin Street,Bellingham,Keough Memorial Academy,Public School,250510,42.03265220000001,-71.4872766
70 Harpin Street,Bellingham,South Elementary,Public School,250020,42.0344965,-71.489463
342 Hartford Avenue,Bellingham,Stall Brook,Public School,250025,42.1234713,-71.4593101
221 Concord Avenue,Belmont,Belmont High,Public School,260505,42.3953048,-71.1652489
90 White Street,Belmont,Daniel Butler,Public School,260015,42.385981,-71.187552
266 School Street,Belmont,Mary Lee Burbank,Public School,260010,42.3885693,-71.1641291
121 Orchard Street,Belmont,Roger E Wellington,Public School,260035,42.3922261,-71.1720168
97 Waterhouse Rd,Belmont,Winn Brook,Public School,260005,42.399278,-71.166
95 Washington Street,Belmont,Winthrop L Chenery Middle,Public School,260305,42.3860353,-71.17071969999999
21 Notre Dame Avenue,Cambridge,Benjamin Banneker Charter Public School,Charter School,4200205,42.3920608,-71.131745
201 Main Street,Franklin,Benjamin Franklin Classical Charter Public School,Charter School,4470205,42.0890455,-71.4006007
25 Memorial Drive,Salem,Bentley Academy Charter School,Charter School,35110205,42.5279993,-70.88110759999999
59 South Main Street,Berkley,Berkley Community School,Public School,270010,41.83300939999999,-71.0885328
21 North Main Street,Berkley,Berkley Middle School,Public School,270305,41.8485141,-71.0861657
One Commercial Place,Adams,Berkshire Arts and Technology Charter Public School,Charter School,4140305,42.6195303,-73.12121069999999
600 Stockbridge Road,Great Barrington,Monument Mt Regional High,Public School,6180505,42.2485867,-73.33154230000001
313 Monument Valley Rd,Great Barrington,Monument Valley Regional Middle School,Public School,6180310,42.2441445,-73.32884179999999
318 Monumnet Valley Rd,Great Barrington,Muddy Brook Regional Elementary School,Public School,6180035,42.2439506,-73.3287405
34 South Street,Berlin,Berlin Memorial,Public School,280005,42.378023,-71.63866279999999
1001 Main Street,Boylston,Tahanto Regional High,Public School,6200505,42.37127820000001,-71.721214
40 Woodland Avenue,Beverly,Ayers/Ryal Side School,Public School,300055,42.551284,-70.890016
100 Sohier Rd,Beverly,Beverly High,Public School,300505,42.5646116,-70.8815731
7 Sohier Rd,Beverly,Briscoe Middle,Public School,300305,42.55921499999999,-70.8782125
17 Hull Street,Beverly,Centerville Elementary,Public School,300010,42.5789358,-70.8417892
20 Eisenhower Avenue,Beverly,Cove Elementary,Public School,300015,42.556047,-70.858329
41R Brimbal Avenue,Beverly,Hannah Elementary,Public School,300033,42.5685379,-70.868321
70 Balch Street,Beverly,McKeown School,Public School,300002,42.5632725,-70.89006680000001
48 Putnam Street,Beverly,North Beverly Elementary,Public School,300040,42.580137,-70.8801055
35 River Street,Billerica,Billerica Memorial High School,Public School,310505,42.5609642,-71.2731919
121 Lexington Rd,Billerica,Eugene C Vining,Public School,310030,42.5340281,-71.2591374
10 Biagiotti Way,North Billerica,Frederick J Dutile,Public School,310007,42.563674,-71.294788
59 Rogers Street,Billerica,Hajjar Elementary,Public School,310026,42.585425,-71.2797329
20 Kimbrough Rd,Billerica,John F Kennedy,Public School,310012,42.567823,-71.232623
110 Allen Rd,Billerica,Locke Middle,Public School,310310,42.551067,-71.2440869
15 Floyd Street,Billerica,Marshall Middle School,Public School,310305,42.5717507,-71.2736281
52 River Street,Billerica,Parker,Public School,310015,42.5576962,-71.2727046
39 Cook Street,Billerica,Thomas Ditson,Public School,310005,42.5370756,-71.22386370000001
65 Pleasant Street,Upton,Blackstone Valley,Public School,8050605,42.1633574,-71.61475089999999
200 Lincoln Street,Blackstone,A F Maloney,Public School,6220015,42.0289687,-71.5456062
175 Lincoln Street,Blackstone,Blackstone Millville RHS,Public School,6220505,42.0295349,-71.5384569
35 Federal Street,Blackstone,Frederick W. Hartnett Middle School,Public School,6220405,42.02253169999999,-71.52934479999999
200 Lincoln Street,Blackstone,John F Kennedy Elementary,Public School,6220008,42.0289687,-71.5456062
122 Berthelette Way,Millville,Millville Elementary,Public School,6220010,42.0349987,-71.57184090000001
800 Randolph Street,Canton,Blue Hills Regional Vocational Technical,Public School,8060605,42.1834614,-71.1032982
612 Metropolitan Av,Hyde Park,Another Course To College,Public School,350541,42.2652284,-71.1174455
121 Corey Road,Brighton,Baldwin Early Learning Center,Public School,350003,42.342044,-71.1405238
5125 Washington Street,West Roxbury,Beethoven,Public School,350021,42.2634318,-71.1558738
380 Shawmut Avenue,Boston,Blackstone,Public School,350390,42.34059449999999,-71.0726731
20 Church St,Back Bay,Boston Adult Academy,Public School,350548,42.3488158,-71.06821169999999
174 Ipswich Street,Boston,Boston Arts Academy,Public School,350546,42.3461819,-71.0949741
60 Hawthorne St,Roslindale,Boston Collaborative High School,Public School,350755,42.28301,-71.1263575
655 Metropolitan Ave,Hyde Park,Boston Community Leadership Academy,Public School,350558,42.2627834,-71.1178807
100 Maxwell St,Dorchester,Boston International High School,Public School,350507,42.2812491,-71.0809452
78 Avenue Louis Pasteur,Boston,Boston Latin,Public School,350560,42.337821,-71.1013384
205 Townsend Street,Dorchester,Boston Latin Academy,Public School,350545,42.316207,-71.0845329
25 Walk Hill Street,Jamaica Plain,Boston Teachers Union School,Public School,350012,42.294662,-71.116
25 Warren Street,Brighton,Brighton High,Public School,350505,42.3491377,-71.145516
396 Northampton Street,Boston,Carter Developmental Center,Public School,350036,42.3404889,-71.0830509
1060 Morton Street,Mattapan,Charles H Taylor,Public School,350054,42.27788049999999,-71.0774428
15 Basile Street,Roslindale,Charles Sumner,Public School,350052,42.2864481,-71.12684229999999
240 Medford Street,Charlestown,Charlestown High,Public School,350515,42.3801019,-71.0610567
28 Walker Street,Charlestown,Clarence R Edwards Middle,Public School,350430,42.3791366,-71.0673427
25 Glen Road,Jamaica Plain,Community Academy,Public School,350518,42.3089352,-71.1034659
11 Charles Street,Dorchester,Community Academy of Science and Health,Public School,350581,42.3008814,-71.0617324
493 Centre St.,Jamaica Plain,Curley K-8 School,Public School,350020,42.31854980000001,-71.1136132
195 Leyden Street,East Boston,Curtis Guild,Public School,350062,42.3884035,-71.0042158
37 Grove Street,East Boston,Dante Alighieri Montessori School,Public School,350066,42.307752,-71.06215999999999
302 Walnut Avenue,Roxbury,David A Ellis,Public School,350072,42.3169104,-71.0922791
60 Washington St,Dorchester,Dearborn,Public School,350074,42.3071524,-71.08116199999999
570 American Legion Highway,Roslindale,Dennis C Haley,Public School,350077,42.28637699999999,-71.107826
122 Cottage Street,East Boston,Donald Mckay,Public School,350080,42.3693811,-71.0342307
11 Charles St,Dorchester,Dorchester Academy,Public School,350651,42.3008814,-71.0617324
108 Babson Street,Mattapan,Dr. Catherine Ellison-Rosa Parks Early Ed School,Public School,350008,42.2718297,-71.09166809999999
1669 Dorchester Avenue,Dorchester,Dr. William Henderson Lower,Public School,350266,42.2938541,-71.0626636
18 Croftland Av,Dorchester,Dr. William Henderson Upper,Public School,350426,42.2814157,-71.069662
200 Heath Street,Jamaica Plain,ELC - West Zone,Public School,350006,42.3260086,-71.10655229999999
135 Grove Street,East Boston,East Boston Early Childhood Center,Public School,350009,42.3914881,-71.0271996
86 White Street,East Boston,East Boston High,Public School,350530,42.3810993,-71.0350735
60 Glenmont Road,Brighton,Edison K-8,Public School,350375,42.345453,-71.16019779999999
71 Pleasant Street,Dorchester,Edward Everett,Public School,350088,42.3136498,-71.05981299999999
16 Charter Street,Boston,Eliot Elementary,Public School,350096,42.3660903,-71.053403
164 School Street,Roxbury,Ellis Mendell,Public School,350100,42.316592,-71.1016609
95 G. Street,South Boston,Excel High School,Public School,350522,42.3328752,-71.044888
67 Alleghany St,Roxbury,Fenway High School,Public School,350540,42.3306688,-71.09930109999999
95 Needham Road,Hyde Park,Franklin D Roosevelt,Public School,350116,42.2430709,-71.1241695
30 Athol Street,Allston,Gardner Pilot Academy,Public School,350326,42.360776,-71.13395950000002
450 Poplar Street,Roslindale,George H Conley,Public School,350122,42.2747823,-71.127066
80 School St,Roxbury,Greater Egleston Community High School,Public School,350543,42.31413180000001,-71.09927909999999
50 Bunker Hill Street,Charlestown,Harvard-Kent,Public School,350200,42.3766804,-71.0577589
263 Blue Hill Avenue,Roxbury,Haynes Early Education Center,Public School,350010,42.31506539999999,-71.0788918
40 Gordon Avenue,Hyde Park,Henry Grew,Public School,350135,42.2567694,-71.1270755
160 Harrishof Street,Roxbury,Higginson,Public School,350015,42.31768340000001,-71.0915549
131 Walnut Avenue,Roxbury,Higginson/Lewis K-8,Public School,350377,42.3208269,-71.08694539999999
40 Armington Street,Allston,Horace Mann School for the Deaf,Public School,350750,42.3519992,-71.13770439999999
33 Trenton Street,East Boston,Hugh Roe O'Donnell,Public School,350141,42.3782673,-71.0380964
40 Armington Street,Allston,Jackson Mann,Public School,350013,42.3519992,-71.13770439999999
200 D Street,South Boston,James Condon Elementary,Public School,350146,42.33816059999999,-71.0525135
154 Ruskindale Road,Mattapan,James J Chittick,Public School,350154,42.26739,-71.104443
218 Marion Street,East Boston,James Otis,Public School,350156,42.375254,-71.03387099999999
205 Roxbury Street,Roxbury,James P Timilty Middle,Public School,350485,42.3305905,-71.09120759999999
200 Heath Street,Jamaica Plain,James W Hennigan,Public School,350153,42.3260086,-71.10655229999999
60 Washington Street,Dorchester,Jeremiah E Burke High,Public School,350525,42.3071524,-71.08116199999999
40 Philbrick Street,Roslindale,John D Philbrick,Public School,350172,42.2853974,-71.1177405
7 Bolster Street,Jamaica Plain,John F Kennedy,Public School,350166,42.321678,-71.105503
315 Mt Vernon Street,Dorchester,John W McCormack,Public School,350179,42.3177527,-71.0438221
35 Brookford Street,Dorchester,John Winthrop,Public School,350180,42.3182059,-71.07562659999999
70 Worcester Street,Boston,Joseph J Hurley,Public School,350182,42.3387476,-71.07774680000001
155 Talbot Avenue,Dorchester,Joseph Lee,Public School,350183,42.2921266,-71.0802923
130 Louders Lane,Jamaica Plain,Joseph P Manning,Public School,350184,42.3055646,-71.1315235
650 E. Fourth Street,South Boston,Joseph P Tynan,Public School,350181,42.3346346,-71.0389242
885 Washington Street,Boston,Josiah Quincy,Public School,350286,42.34799,-71.064984
35 Baker Street,West Roxbury,Joyce Kilmer,Public School,350190,42.271834,-71.1625431
77 Lawrence Avenue,Dorchester,King K-8,Public School,350376,42.311055,-71.076481
25 Dunbar Avenue,Dorchester,Lee Academy,Public School,350001,42.2867458,-71.07272379999999
270 Columbia Road,Dorchester,Lilla G. Frederick Middle School,Public School,350383,42.3091746,-71.0755999
20 Mt. Vernon Street,West Roxbury,Lyndon,Public School,350262,42.2828592,-71.158638
50 Beechcroft Street,Brighton,Lyon K-8,Public School,350004,42.3510689,-71.1614678
95 Beechcroft Street,Brighton,Lyon Upper 9-12,Public School,350655,42.3521254,-71.1607454
75 Malcolm X Blvd,Roxbury,Madison Park High,Public School,350537,42.3320631,-71.09084519999999
110 Beachview Road,East Boston,Manassah E Bradley,Public School,350215,42.3916287,-71.00505319999999
20 Child Street,Boston,Margarita Muniz Academy,Public School,350549,42.3072631,-71.1142352
312 Border Street,East Boston,Mario Umana Academy,Public School,350656,42.3783625,-71.0407417
1 Parish Street,Dorchester,Mather,Public School,350227,42.308294,-71.0610051
100 Hebron Street,Mattapan,Mattahunt,Public School,350226,42.2763126,-71.1033928
40 Smith St,Roxbury,Maurice J Tobin,Public School,350229,42.333023,-71.098334
50 Burke Street,South Boston,Michael J Perkins,Public School,350231,42.3311857,-71.0509508
5 Mildred Avenue,Mattapan,Mildred Avenue K-8,Public School,350378,42.2768433,-71.09057469999999
20 Child Street,Jamaica Plain,Mission Hill School,Public School,350382,42.3072631,-71.1142352
236 Beech Street,Roslindale,Mozart,Public School,350237,42.2812332,-71.1410751
51 Cedar Street,Roxbury,Nathan Hale,Public School,350243,42.3255446,-71.09108599999999
655 Metropolitan Ave,Hyde Park,New Mission High School,Public School,350542,42.2627834,-71.1178807
40 School Street,Dorchester,O W Holmes,Public School,350138,42.29669150000001,-71.0748935
55 Malcolm X Blvd,Roxbury,O'Bryant School Math/Science,Public School,350575,42.330843,-71.08838589999999
745 E. 7th Street,South Boston,Oliver Hazard Perry,Public School,350255,42.3322914,-71.0302207
906 Albany Street,Roxbury,Orchard Gardens,Public School,350257,42.3305706,-71.0772767
343 Saratoga Street,East Boston,Patrick J Kennedy,Public School,350264,42.3784708,-71.0304096
325 Mt Vernon Street,Dorchester,Paul A Dever,Public School,350268,42.3172591,-71.04287219999999
429 Norfolk Street,Dorchester,Pauline Agassiz Shaw Elementary School,Public School,350014,42.282111,-71.0868557
426 Beech Street,Roslindale,Phineas Bates,Public School,350278,42.2777354,-71.1353323
152 Arlington Street,Boston,Quincy Upper School,Public School,350565,42.34842,-71.068867
61 School Street,Roxbury,Rafael Hernandez,Public School,350691,42.3139461,-71.0978672
1 Worrell Street,Dorchester,Richard J Murphy,Public School,350240,42.2943449,-71.0492968
35 Harvest Street,Dorchester,Roger Clap,Public School,350298,42.3230627,-71.0585214
165 Webster Street,East Boston,Samuel Adams,Public School,350302,42.3655183,-71.0349256
150 Norfolk Avenue,Roxbury,Samuel W Mason,Public School,350304,42.3261263,-71.0712839
189 Glenway Street,Dorchester,Sarah Greenwood,Public School,350308,42.29659669999999,-71.0806571
150 Newbury Street,Boston,Snowden International School at Copley,Public School,350690,42.350546,-71.0779697
9 Peacevale Road,Dorchester,TechBoston Academy,Public School,350657,42.285125,-71.0760129
144 McBride Street,Jamaica Plain,The English High,Public School,350535,42.3065838,-71.1092285
19 Oakton Avenue,Dorchester,Thomas J Kenny,Public School,350328,42.2865064,-71.0532317
85 Olney Street,Dorchester,UP Academy Holland,Public School,350167,42.3060151,-71.0736048
1205 V.F.W. Parkway,West Roxbury,Urban Science Academy,Public School,350579,42.28216889999999,-71.1745297
50 School Street,Charlestown,Warren-Prescott,Public School,350346,42.3778928,-71.0646338
105 Cummins Highway,Roslindale,Washington Irving Middle,Public School,350445,42.2833038,-71.1252748
1205 V.F.W. Parkway,West Roxbury,West Roxbury Academy,Public School,350658,42.28216889999999,-71.1745297
750 Columbia Road,Dorchester,William E Russell,Public School,350366,42.3203947,-71.0595479
35 Sunnyside Street,Hyde Park,William Ellery Channing,Public School,350360,42.2515745,-71.1334134
175 West Boundary Road,West Roxbury,William H Ohrenberger,Public School,350258,42.2608415,-71.14946619999999
90 Warren Avenue,Boston,William McKinley,Public School,350363,42.3442518,-71.07348979999999
135 Humboldt Avenue,Dorchester,William Monroe Trotter,Public School,350370,42.3157564,-71.0879868
54 Dighton Street,Brighton,Winship Elementary,Public School,350374,42.34757920000001,-71.15535009999999
20 Outlook Road,Mattapan,Young Achievers,Public School,350380,42.2822311,-71.0948051
11 Mayhew Street,Dorchester,Boston Collegiate Charter School,Charter School,4490305,42.3216567,-71.0608167
20 Kearsarge Ave,Roxbury,Boston Day and Evening Academy Charter School,Charter School,4240505,42.327022,-71.08171589999999
20 Warren St.,Brighton,Boston Green Academy Horace Mann Charter School,Charter School,4110305,42.3503536,-71.1455821
1286 Hyde Park Avenue,Hyde Park,Boston Preparatory Charter Public School,Charter School,4160305,42.254824,-71.12357999999999
1415 Hyde Park Ave,Hyde Park,Boston Renaissance Charter Public School,Charter School,4810550,42.2504747,-71.1267076
75 Waterhouse Rd,Bourne,Bourne High School,Public School,360505,41.7387041,-70.59287859999999
77 Waterhouse Road,Bourne,Bourne Middle School,Public School,360325,41.73867690000001,-70.5927669
41 Ernest Valerie Road,Bournedale,Bournedale Elementary School,Public School,360005,41.7599963,-70.5800704
70 Trowbridge Rd,Bourne,Peebles Elementary School,Public School,360010,41.74175899999999,-70.593221
26 Middleton Rd,Boxford,Harry Lee Cole,Public School,380005,42.6603741,-71.00285989999999
31 Spofford Road,Boxford,Spofford Pond,Public School,380013,42.6968616,-71.01744
200 Sewall Street,Boylston,Boylston Elementary,Public School,390005,42.33121149999999,-71.7397836
260 Liberty Street,Braintree,Archie T Morrison,Public School,400033,42.2103256,-70.9791295
128 Town Street,Braintree,Braintree High,Public School,400505,42.2050285,-71.0189443
20 Hayward Street,Braintree,Donald Ross,Public School,400050,42.2288129,-70.9868999
305 River St.,Braintree,East Middle School,Public School,400305,42.219735,-70.988291
144 Wildwood Avenue,Braintree,Highlands,Public School,400015,42.1776017,-71.0050897
482 Washington Street,Braintree,Hollis,Public School,400005,42.2160166,-71.0028183
49 Proctor Rd,Braintree,Liberty,Public School,400025,42.18710360000001,-70.9935835
99 Lakeside Dr,Braintree,Mary E Flaherty School,Public School,400020,42.2214002,-71.017668
25 Brow Avenue,Braintree,Monatiquot Kindergarten Center,Public School,400009,42.2109467,-71.0063971
232 Peach Street,Braintree,South Middle School,Public School,400310,42.184408,-70.997913
2298 Main Street,Brewster,Eddy Elementary,Public School,410010,41.7617516,-70.069902
384 Underpass Road,Brewster,Stony Brook Elementary,Public School,410005,41.7574309,-70.069279
2 McLellan Street,Dorchester,Bridge Boston Charter School,Charter School,4170205,42.301326,-71.0853976
166 Mt. Prospect Street,Bridgewater,Bridgewater Middle School,Public School,6250320,41.9893098,-70.98461859999999
415 Center Street,Bridgewater,Bridgewater-Raynham Regional,Public School,6250505,41.9888009,-70.9871338
777 Pleasant Street,Raynham,Laliberte Elementary School,Public School,6250050,41.933923,-71.02935099999999
687 Pleasant Street,Raynham,Merrill Elementary School,Public School,6250020,41.9323989,-71.030636
166 Mt. Prospect Street,Bridgewater,Mitchell Elementary School,Public School,6250002,41.9893098,-70.98461859999999
420 Titicut Rd,Raynham,Raynham Middle School,Public School,6250315,41.947072,-71.037151
166 Mt Prospect Street,Bridgewater,Therapeutic Day School,Public School,6250415,41.9893098,-70.98461859999999
200 South Street,Bridgewater,Williams Intermediate School,Public School,6250300,41.9839853,-70.9796137
22 Wales Rd,Brimfield,Brimfield Elementary,Public School,430005,42.1188365,-72.20154149999999
135 Center Street,Dighton,Bristol County Agricultural High,Public School,9100705,41.833788,-71.11335
207 Hart Street,Taunton,Bristol-Plymouth Vocational Technical,Public School,8100605,41.88344660000001,-71.05502969999999
225 Coe Road,Brockton,Ashfield Middle School,Public School,440421,42.1032881,-70.99557109999999
45 Oakdale Street,Brockton,Barrett Russell School,Public School,440007,42.0893194,-71.02834399999999
175 Warren Avenue,Brockton,Brockton Champion High School,Public School,440515,42.0824636,-71.0229518
470 Forest Avenue,Brockton,Brockton High,Public School,440505,42.0701433,-71.03983939999999
135 Jon Drive,Brockton,Brookfield,Public School,440010,42.1178392,-71.0099553
55 Electric Avenue,Brockton,Downey,Public School,440110,42.077899,-70.9939309
135 Belmont Street,Brockton,Dr W Arnone Community School,Public School,440001,42.0801346,-71.02504950000001
464 Centre Street,Brockton,East Middle School,Public School,440405,42.0857895,-71.0006554
380 Plain Street,Brockton,Edgar B Davis,Public School,440023,42.054199,-70.99989409999999
470 Forest Avenue,Brockton,Edison Academy,Public School,440520,42.0701433,-71.03983939999999
175 Warren Avenue,Brockton,Frederick Douglass Academy,Public School,440080,42.0824636,-71.0229518
150 Clinton Street,Brockton,Gilmore School Early Childhood Center,Public School,440050,42.0667342,-71.0126957
20 Union Street,Brockton,Goddard Alternative School,Public School,440400,42.0739581,-71.0179425
125 Pearl Street,Brockton,Hancock,Public School,440045,42.085522,-71.06695479999999
1121 Warren Avenue,Brockton,Huntington,Public School,440055,42.062674,-71.019644
900 Ash Street,Brockton,John F Kennedy,Public School,440017,42.0594557,-71.0370894
250 Crescent Street,Brockton,Joseph F. Plouffe Academy,Public School,440422,42.0806649,-71.01178829999999
472 North Main Street,Brockton,Louis F Angelo Elementary,Public School,440065,42.09516929999999,-71.02002089999999
180 Colonel Bell Drive,Brockton,Manthala George Jr. School,Public School,440003,42.0964843,-71.04013379999999
45 Quincy Street,Brockton,Mary E. Baker School,Public School,440002,42.0935227,-70.9898868
108 Oak Street,Brockton,North Middle School,Public School,440410,42.102444,-71.02918749999999
125 Oak Street,Brockton,Oscar F Raymond,Public School,440078,42.1028695,-71.0301887
105 Keith Ave Ext,Brockton,South Middle School,Public School,440415,42.0602243,-71.0200697
271 West St,Brockton,West Middle School,Public School,440420,42.0792607,-71.0454752
190 Cummins Highway,Roslindale,Brooke Charter School,Charter School,4280305,42.28183,-71.1216865
1 Central Street,Brookfield,Brookfield Elementary,Public School,450005,42.2150708,-72.1024123
115 Greenough Street,Brookline,Brookline Early Education Program at Beacon,Public School,460001,42.3332148,-71.1291829
194 Grove Street,Chestnut Hill,Brookline Early Education Program at Putterham,Public School,460002,42.3025573,-71.1515843
115 Greenough Street,Brookline,Brookline High,Public School,460505,42.3332148,-71.1291829
205 Beverly Rd,Chestnut Hill,Edith C Baker,Public School,460005,42.3037386,-71.15757810000001
194 Boylston St,Brookline,Edward Devotion,Public School,460015,42.3304847,-71.1220522
100 Eliot Street,Chestnut Hill,Heath,Public School,460025,42.3278673,-71.1481441
50 Druce Street,Brookline,John D Runkle,Public School,460045,42.3341714,-71.1421518
27 Francis Street,Brookline,Lawrence,Public School,460030,42.3392876,-71.1141815
64 Westbourne Terrace,Brookline,Michael Driscoll,Public School,460020,42.3410616,-71.1365015
50 School Street,Brookline,Pierce,Public School,460040,42.3357114,-71.1208431
599 Brookline Avenue,Brookline,The Lynch Center,Public School,460060,42.3338097,-71.1130514
19 Kennard Rd,Brookline,William H Lincoln,Public School,460035,42.3284886,-71.12937649999999
123 Cambridge Street,Burlington,Burlington High,Public School,480505,42.49592080000001,-71.1980741
1 Fox Hill Rd,Burlington,Fox Hill,Public School,480007,42.5175778,-71.19665839999999
41 Terrace Hall Avenue,Burlington,Francis Wyman Elementary,Public School,480035,42.50180599999999,-71.215396
114 Winn Street,Burlington,Marshall Simonds Middle,Public School,480303,42.502078,-71.1811759
125 Winn Street,Burlington,Memorial,Public School,480015,42.5006399,-71.1835889
1 Pine Glen Way,Burlington,Pine Glen Elementary,Public School,480020,42.52230369999999,-71.20715620000001
15 Upton Street,Cambridge,Amigos School,Public School,490006,42.3628341,-71.10853139999999
459 Broadway Ave,Cambridge,Cambridge Rindge and Latin,Public School,490506,42.3744083,-71.1106136
158 Spring Street,Cambridge,Cambridge Street Upper School,Public School,490305,42.3691032,-71.0868342
89 Elm Street,Cambridge,Cambridgeport,Public School,490007,42.3694079,-71.0977924
225 Windsor Street,Cambridge,Fletcher/Maynard Academy,Public School,490090,42.366809,-71.0959045
44 Linnaean Street,Cambridge,Graham and Parks,Public School,490080,42.3830686,-71.1239899
110 Cushing Street,Cambridge,Haggerty,Public School,490020,42.3781208,-71.1524555
197 Vassal Lane,Cambridge,John M Tobin,Public School,490065,42.3843907,-71.1397483
158 Spring Street,Cambridge,Kennedy-Longfellow,Public School,490040,42.3691032,-71.0868342
359 Broadway,Cambridge,King Open,Public School,490035,42.3709148,-71.1039954
28 Sacramento Street,Cambridge,Maria L. Baldwin,Public School,490005,42.38233109999999,-71.1166671
102 Putnam Avenue,Cambridge,Martin Luther King Jr.,Public School,490030,42.3668539,-71.1129815
40 Granite Street,Cambridge,Morse,Public School,490045,42.3559172,-71.11269
70 Rindge Avenue,Cambridge,Peabody,Public School,490050,42.391922,-71.1280895
100 Putnam Avenue,Cambridge,Putnam Avenue Upper School,Public School,490310,42.3667886,-71.1129155
70 Rindge Avenue,Cambridge,Rindge Avenue Upper School,Public School,490315,42.391922,-71.1280895
197 Vassal Lane,Cambridge,Vassal Lane Upper School,Public School,490320,42.3843907,-71.1397483
900 Washington Street,Canton,Canton High,Public School,500505,42.16282959999999,-71.14529759999999
45 Independence St,Canton,Dean S Luce,Public School,500020,42.1603866,-71.1330148
100 Dedham Street,Canton,John F Kennedy,Public School,500017,42.17534250000001,-71.1426676
25 Pecunit Street,Canton,Lt Peter M Hansen,Public School,500012,42.1834269,-71.1290673
960 Washington Street,Canton,Rodman Early Childhood Center,Public School,500010,42.1634298,-71.1444254
55 Pecunit Street,Canton,Wm H Galvin Middle,Public School,500305,42.1857859,-71.13198369999999
195 Route 137,East Harwich,Cape Cod Lighthouse Charter School,Charter School,4320530,41.7109152,-70.0255561
351 Pleasant Lake Avenue,Harwich,Cape Cod Region Vocational Technical,Public School,8150605,41.7108249,-70.0755788
83 School Street,Carlisle,Carlisle School,Public School,510025,42.52644,-71.3490047
85 Main Street,Carver,Carver Elementary School,Public School,520015,41.8911097,-70.7724576
60 South Meadow Road,Carver,Carver Middle/High School,Public School,520405,41.8937277,-70.75568679999999
12 Maple Street,Becket,Becket Washington School,Public School,6350005,42.3321016,-73.08307099999999
71 Park Avenue,Dalton,Craneville,Public School,6350025,42.4750981,-73.1756408
80 Maple Street,Hinsdale,Kittredge,Public School,6350035,42.438496,-73.121134
35 Fox Road,Dalton,Nessacus Regional Middle School,Public School,6350305,42.468061,-73.138905
150 Windsor Rd,Dalton,Wahconah Regional High,Public School,6350505,42.470249,-73.13829199999999
25 Maple Road,Chelmsford,Byam School,Public School,560030,42.5714415,-71.38067
84 Billerica Road,Chelmsford,Center Elementary School,Public School,560005,42.5990881,-71.34373830000001
120 Richardson Rd,North Chelmsford,Charles D Harrington,Public School,560025,42.6226782,-71.3792172
200 Richardson Rd,North Chelmsford,Chelmsford High,Public School,560505,42.6214956,-71.37562609999999
75 Graniteville Rd,Chelmsford,Col Moses Parker School,Public School,560305,42.6187263,-71.3835033
170 Dalton Road,Chelmsford,Community Education Center,Public School,560001,42.6116664,-71.341979
250 North Rd,Chelmsford,McCarthy Middle School,Public School,560310,42.6190597,-71.3672309
250 Boston Rd,Chelmsford,South Row,Public School,560015,42.5772055,-71.3358472
299 Everett Avenue,Chelsea,Chelsea High,Public School,570505,42.400561,-71.040274
8 Clark Avenue,Chelsea,Clark Avenue School,Public School,570050,42.3961021,-71.0308185
300 Crescent Avenue,Chelsea,Edgar A Hooks Elementary,Public School,570030,42.39942,-71.0191305
180 Walnut Street,Chelsea,Eugene Wright Science and Technology Academy,Public School,570045,42.3938764,-71.0368576
300 Crescent Avenue,Chelsea,Frank M Sokolowski Elementary,Public School,570040,42.39942,-71.0191305
300 Crescent Avenue,Chelsea,George F. Kelly Elementary,Public School,570035,42.39942,-71.0191305
180 Walnut Street,Chelsea,Joseph A. Browne School,Public School,570055,42.3938764,-71.0368576
99 Hawthorn Street,Chelsea,Shurtleff Early Childhood,Public School,570003,42.3897545,-71.0353452
300 Crescent Avenue,Chelsea,William A Berkowitz Elementary,Public School,570025,42.39942,-71.0191305
30 Smith Rd,Chesterfield,New Hingham Regional Elementary,Public School,6320025,42.4027341,-72.8486545
44 Connell Street,Chicopee,Barry,Public School,610003,42.1662194,-72.5878769
125 Montgomery St.,Chicopee,Belcher,Public School,610010,42.1632157,-72.5836941
314 Pendleton Avenue,Chicopee,Bellamy Middle,Public School,610305,42.1905146,-72.5875592
115 Hampden Street,Chicopee,Bowe,Public School,610015,42.1406644,-72.6086085
80 D.A.R.E. Way,Chicopee,Bowie,Public School,610020,42.19778410000001,-72.55884189999999
12 DARE Way,Chicopee,Chicopee Academy,Public School,610021,42.1982717,-72.5614154
617 Montgomery Street,Chicopee,Chicopee Comprehensive High School,Public School,610510,42.1767696,-72.5922296
820 Front Street,Chicopee,Chicopee High,Public School,610505,42.14892589999999,-72.5857556
650 Front Street,Chicopee,Dupont Middle,Public School,610310,42.1466122,-72.5924411
26 Memorial Ave.,Chicopee,Fairview Elementary,Public School,610050,42.20759820000001,-72.57474479999999
720 Meadow Street,Chicopee,Gen John J Stefanik,Public School,610090,42.16699089999999,-72.6155532
99 Kendall Street,Chicopee,Lambert-Lavoie,Public School,610040,42.1763007,-72.5951934
135 Litwin Lane,Chicopee,Litwin,Public School,610022,42.1747123,-72.5243172
40 Streiber Drive,Chicopee,Streiber Memorial School,Public School,610065,42.1950989,-72.5762987
66 Macek Drive,Chicopee,Szetela Early Childhood Center,Public School,610001,42.1597223,-72.602158
139 Newbury St,Framingham,Christa McAuliffe Charter Public School,Charter School,4180305,42.307738,-71.3950009
58 Circuit Street,Roxbury,City on a Hill Charter Public School Circuit Street,Charter School,4370505,42.32396749999999,-71.0875567
2179 Washington Street,Roxbury,City on a Hill Charter Public School Dudley Square,Charter School,35040505,42.3313463,-71.0823899
384 Acushnet Ave,New Bedford,City on a Hill Charter Public School New Bedford,Charter School,35070505,41.635816,-70.924939
777 W Crossroad,Clarksburg,Clarksburg Elementary,Public School,630010,42.720858,-73.09989759999999
100 Church Street,Clinton,Clinton Elementary,Public School,640050,42.4185556,-71.68656399999999
100 West Boylston Street,Clinton,Clinton Middle School,Public School,640305,42.4086861,-71.7021932
200 West Boylston Street,Clinton,Clinton Senior High,Public School,640505,42.4091588,-71.7058081
637 Washington Street,Dorchester,Codman Academy Charter Public School,Charter School,4380505,42.28941450000001,-71.07205450000001
143 Pond Street,Cohasset,Cohasset Middle/High School,Public School,650505,42.232033,-70.80896600000001
208 Sohier St,Cohasset,Deer Hill,Public School,650005,42.2375803,-70.816459
210 Sohier St,Cohasset,Joseph Osgood,Public School,650010,42.237278,-70.812873
1857 Middlesex Street,Lowell,Collegiate Charter School of Lowell,Charter School,35030205,42.6363115,-71.3581109
245 Bent Street,Cambridge,Community Charter School of Cambridge,Charter School,4360305,42.36769779999999,-71.0851986
50 Pleasant Street,Lawrence,Community Day Charter Public School - Gateway,Charter School,4260205,42.7126509,-71.1449446
190 Hampshire Street,Lawrence,Community Day Charter Public School - Prospect,Charter School,4400205,42.7095045,-71.1677224
50 Pleasant Street,Lawrence,Community Day Charter Public School - R. Kingman Webster,Charter School,4310205,42.7126509,-71.1449446
93 Laurel Street,Concord,Alcott,Public School,670005,42.4534203,-71.3463328
835 Old Marlboro Rd,Concord,Concord Middle,Public School,670305,42.4404322,-71.39658229999999
29 Prairie Street,Concord,Thoreau,Public School,670020,42.4516552,-71.3974336
185 Powder Mill Rd,Concord,Willard,Public School,670030,42.429251,-71.382042
500 Walden Street,Concord,Concord Carlisle High,Public School,6400505,42.447243,-71.347501
2120 Dorchester Avenue,Dorchester,Conservatory Lab Charter School,Charter School,4390050,42.2768373,-71.065882
24 Fournier Rd.,Conway,Conway Grammar,Public School,680005,42.5084104,-72.6753414
60 Cabot Road,Danvers,Danvers High,Public School,710505,42.5826398,-70.9317256
76 Pickering Street,Danvers,Great Oak,Public School,710015,42.5698369,-70.9486897
190 Hobart,Danvers,Highlands,Public School,710010,42.564421,-70.95931929999999
55 Conant Street,Danvers,Holten Richmond Middle School,Public School,710305,42.5675706,-70.9295556
15 Lobao Drive,Danvers,Ivan G Smith,Public School,710032,42.5876438,-70.9539064
95 Liberty Street,Danvers,Riverside,Public School,710030,42.5601388,-70.92357439999999
1 Avon Rd,Danvers,Willis E Thorpe,Public School,710045,42.5734324,-70.92290489999999
746 Dartmouth Street,Dartmouth,Andrew B. Cushman School,Public School,720005,41.5980815,-70.94142599999999
555 Bakerville Road,Dartmouth,Dartmouth High,Public School,720505,41.5940391,-70.9780713
366 Slocum Road,North Dartmouth,Dartmouth Middle,Public School,720050,41.62748029999999,-70.964868
185 Cross Rd,North Dartmouth,George H Potter,Public School,720030,41.645281,-71.00881799999999
529 Hawthorn Street,Dartmouth,James M. Quinn School,Public School,720040,41.62763930000001,-70.960174
654 Dartmouth Street,South Dartmouth,Joseph Demello,Public School,720015,41.6051827,-70.93984619999999
336 High Street,Dedham,Avery,Public School,730010,42.2471126,-71.16177739999999
140 Whiting Avenue,Dedham,Dedham High,Public School,730505,42.2459247,-71.1620287
70 Whiting Avenue,Dedham,Dedham Middle School,Public School,730305,42.2443828,-71.1662705
322 Sprague Street,Dedham,Early Childhood Center,Public School,730005,42.231403,-71.146965
191 Greenlodge Street,Dedham,Greenlodge,Public School,730025,42.2246616,-71.1559056
147 Cedar Street,Dedham,Oakdale,Public School,730030,42.2390219,-71.15336599999999
143 Needham Street,Dedham,Riverdale,Public School,730045,42.27015919999999,-71.1803159
21 Pleasant Street,South Deerfield,Deerfield Elementary,Public School,740015,42.480992,-72.60839
210 Station Avenue,South Yarmouth,Dennis-Yarmouth Regional High,Public School,6450505,41.6775776,-70.1932971
810 Route 28,West Dennis,Ezra H Baker Innovation School,Public School,6450005,41.66797,-70.15295400000001
440 Higgins Crowell Rd,West Yarmouth,Marguerite E Small Elementary,Public School,6450015,41.67362440000001,-70.24609579999999
400 Higgins Crowell Rd,West Yarmouth,Mattacheese Middle School,Public School,6450305,41.6724755,-70.2470577
276 Station Avenue,South Yarmouth,Station Avenue Elementary,Public School,6450025,41.6802119,-70.19768119999999
1250 Somerset Avenue,Dighton,Dighton Elementary,Public School,6500005,41.8354466,-71.12129159999999
1250R Somerset Avenue,Dighton,Dighton Middle School,Public School,6500305,41.8354466,-71.12129159999999
2700 Regional Rd,North Dighton,Dighton-Rehoboth Regional High School,Public School,6500505,41.853402,-71.19667799999999
330R Winthrop Street,Rehoboth,Dorothy L Beckwith,Public School,6500310,41.8480487,-71.2506145
326 Winthrop Street,Rehoboth,Palmer River,Public School,6500010,41.8484722,-71.2524267
19 Davis Street,Douglas,Douglas Elementary School,Public School,770015,42.0715655,-71.70295519999999
33 Davis Street,Douglas,Douglas High School,Public School,770505,42.0706549,-71.7018733
21 Davis Street,Douglas,Douglas Middle School,Public School,770305,42.0713877,-71.7027765
17 Gleason Court,Douglas,Douglas Primary School,Public School,770005,42.0706114,-71.70887739999999
29 Cross Street,Dover,Chickering,Public School,780005,42.2509526,-71.2716884
9 Junction Street,Dover,Dover-Sherborn Regional High,Public School,6550505,42.2184631,-71.32386989999999
155 Farm Street,Dover,Dover-Sherborn Regional Middle School,Public School,6550405,42.2191892,-71.3231071
1560 Lakeview Avenue,Dracut,Brookside Elementary,Public School,790035,42.67307,-71.3418868
1540 Lakeview Avenue,Dracut,Dracut Senior High,Public School,790505,42.6751065,-71.336613
1580 Lakeview Ave,Dracut,George H. Englesby Elementary School,Public School,790045,42.676328,-71.3380371
37 Greenmont Avenue,Dracut,Greenmont Avenue,Public School,790030,42.6691409,-71.30813309999999
1021 Methuen Street,Dracut,Joseph A Campbell Elementary,Public School,790020,42.6633565,-71.2641119
1570 Lakeview Ave,Dracut,Justus C. Richardson Middle School,Public School,790410,42.6752281,-71.3400382
6 Shirley Street,Boston,Dudley Street Neighborhood Charter School,Charter School,4070405,42.3235262,-71.072897
9 Burlingame Road,Charlton,Charlton Elementary,Public School,6580020,42.132128,-71.97109549999999
2 Oxford Road,Charlton,Charlton Middle School,Public School,6580310,42.1344656,-71.9415788
16 School Street,Dudley,Dudley Elementary,Public School,6580005,42.0557735,-71.8874688
70 Dudley-Oxford Road,Dudley,Dudley Middle School,Public School,6580305,42.054296,-71.914208
34 Oxford Rd,Charlton,Heritage School,Public School,6580030,42.1324485,-71.9364073
20 Mason Road,Dudley,Mason Road School,Public School,6580010,42.0461943,-71.905267
68 Dudley Oxford Road,Dudley,Shepherd Hill Regional High,Public School,6580505,42.0541405,-71.9185921
75 Alden Street,Duxbury,Alden School,Public School,820004,42.04718990000001,-70.6834658
93 Chandler Street,Duxbury,Chandler Elementary,Public School,820006,42.03536709999999,-70.7380843
130 St. George Street,Duxbury,Duxbury High,Public School,820505,42.0472962,-70.6797031
71 Alden Street,Duxbury,Duxbury Middle,Public School,820305,42.0463205,-70.6790706
107 Central Street,East Bridgewater,Central,Public School,830005,42.0309059,-70.9573279
143 Plymouth Street,East Bridgewater,East Bridgewater JR./SR. High School,Public School,830505,42.0284758,-70.9545017
435 Central Street,East Bridgewater,Gordon W Mitchell,Public School,830010,42.02854689999999,-70.9451404
50 Hanward Hill,East Longmeadow,Birchland Park,Public School,870305,42.0692937,-72.50763119999999
180 Maple Street,East Longmeadow,East Longmeadow High,Public School,870505,42.0585773,-72.5249754
175 Mapleshade Avenue,East Longmeadow,Mapleshade,Public School,870010,42.0728282,-72.50689729999999
607 Parker Street,East Longmeadow,Meadow Brook,Public School,870013,42.0784499,-72.4841469
77 Hampden Rd,East Longmeadow,Mountain View,Public School,870015,42.0517514,-72.4833957
200 Schoolhouse Road,Eastham,Eastham Elementary,Public School,850005,41.8410628,-69.97377949999999
9 School Street,Easthampton,Center School,Public School,860005,42.2685881,-72.67240319999999
70 Williston Avenue,Easthampton,Easthampton High,Public School,860505,42.260141,-72.671048
7 Chapel Street,Easthampton,Maple,Public School,860010,42.2647872,-72.6638334
4 Park Street,Easthampton,Neil A Pepin,Public School,860020,42.268491,-72.673281
200 Park Street,Easthampton,White Brook Middle School,Public School,860305,42.2529099,-72.6789048
388 Depot Street,South Easton,Center School,Public School,880003,42.0345906,-71.0994395
98 Columbus Avenue,North Easton,Easton Middle School,Public School,880405,42.0594143,-71.1102459
360 Washington Street,North Easton,Moreau Hall,Public School,880020,42.061629,-71.08622799999999
100 Lothrop Street,North Easton,Oliver Ames High,Public School,880505,42.0551584,-71.1110324
50 Spooner Street,North Easton,Parkview Elementary,Public School,880015,42.058015,-71.1084114
101 Lothrop Street,North Easton,Richardson Olmsted School,Public School,880025,42.057977,-71.111183
35 Robinson Road,Edgartown,Edgartown Elementary,Public School,890005,41.3899304,-70.5227395
360 Huntington Avenue,Boston,Edward M. Kennedy Academy for Health Careers (Horace Mann Charter School),Charter School,4520505,42.339256,-71.090803
28 Northfield Road,Erving,Erving Elementary,Public School,910030,42.58813,-72.4845168
P.O. Box 346,Hathorne,Essex Technical High School,Public School,8170505,42.5862053,-70.97449639999999
78 Tileston Street,Everett,Adams School,Public School,930003,42.4049523,-71.0654488
22 Church Street,Everett,Devens School,Public School,930030,42.408377,-71.05584
100 Elm Street,Everett,Everett High,Public School,930505,42.4144322,-71.0437089
20 Nichols Street,Everett,George Keverian School,Public School,930028,42.4089217,-71.04481439999999
117 Edith Street,Everett,Lafayette School,Public School,930038,42.4219255,-71.0510472
105 Woodville Street,Everett,Madeline English School,Public School,930018,42.4134723,-71.0691208
587 Broadway Street,Everett,Parlin School,Public School,930058,42.410812,-71.05061289999999
337 Broadway,Everett,Sumner G. Whittier School,Public School,930010,42.40386,-71.057718
30 Darmouth Street,Everett,Webster School,Public School,930015,42.4124632,-71.03890679999999
58 Moore Street,East Boston,Excel Academy Charter School,Charter School,4100205,42.38270199999999,-71.018783
2 New Boston Road,Fairhaven,East Fairhaven,Public School,940010,41.64884989999999,-70.86121829999999
12 Huttleston Avenue,Fairhaven,Fairhaven High,Public School,940505,41.64356009999999,-70.9054384
30 School Street,Fairhaven,Hastings Middle,Public School,940305,41.6469351,-70.8981203
60 Sconticut Neck Road,Fairhaven,Leroy Wood,Public School,940030,41.6367066,-70.8803265
360 Elsbree Street,Fall River,B M C Durfee High,Public School,950505,41.7155254,-71.1315499
525 Slade Street,Fall River,Carlton M. Viveiros Elementary School,Public School,950009,41.6859092,-71.17673669999999
360 Elsbree Street,Fall River,Fall River Gateway to College @ BCC,Public School,950515,41.7155254,-71.1315499
151 Amity Street,Fall River,Henry Lord Community School,Public School,950017,41.6724347,-71.1690267
711 Ray Street,Fall River,James Tansey,Public School,950140,41.718721,-71.13086899999999
101 Fountain Street,Fall River,John J Doran,Public School,950045,41.7001697,-71.1651181
323 Anthony Street,Fall River,Letourneau Elementary School,Public School,950013,41.673469,-71.1558
160 Wall Street,Fall River,Mary Fonseca Elementary School,Public School,950011,41.7011651,-71.1385885
52 Globe Mills Avenue,Fall River,Matthew J Kuss Middle,Public School,950320,41.69275570000001,-71.1805913
1135 North Main Street,Fall River,Morton Middle,Public School,950315,41.7164201,-71.15002989999999
1899 Meridian Street,Fall River,North End Elementary,Public School,950005,41.733566,-71.11113250000001
290 Rock Street,Fall River,Resiliency Middle School,Public School,950335,41.7059346,-71.1528695
290 Rock Street,Fall River,Resiliency Preparatory School,Public School,950325,41.7059346,-71.1528695
935 Eastern Avenue,Fall River,Samuel Watson,Public School,950145,41.68435090000001,-71.1305752
1400 President Avenue,Fall River,Spencer Borden,Public School,950130,41.7135656,-71.1310244
1207 Globe Street,Fall River,Stone Day School,Public School,950340,41.6839359,-71.1602829
124 Melrose Street,Fall River,Talbot Innovation School,Public School,950305,41.6932286,-71.1252755
409 Cambridge Street,Fall River,William S Greene,Public School,950065,41.6860438,-71.1523383
33 Davisville Rd,East Falmouth,East Falmouth Elementary,Public School,960005,41.5768852,-70.56051939999999
874 Gifford Street,Falmouth,Falmouth High,Public School,960505,41.5900431,-70.6075906
113 Lakeview Avenue,Falmouth,Lawrence,Public School,960405,41.5552915,-70.6156196
323 Jones Road,Falmouth,Morse Pond School,Public School,960305,41.559517,-70.605448
130 Katherine Lee Bates Rd,Falmouth,Mullen-Hall,Public School,960020,41.5539549,-70.61345
62 Old Main Road,North Falmouth,North Falmouth Elementary,Public School,960030,41.637673,-70.6216226
45 Maravista Ave Ext,East Falmouth,Teaticket,Public School,960015,41.5676505,-70.59101129999999
555 N Main Street,Otis,Farmington River Elementary,Public School,6620020,42.2061304,-73.09407039999999
98 Academy Street,Fitchburg,Arthur M Longsjo Middle School,Public School,970315,42.5864339,-71.80051379999999
200 Bigelow Dr,Fitchburg,Crocker Elementary,Public School,970016,42.6040437,-71.80640050000001
140 Arn-How Farm Rd,Fitchburg,Fitchburg High,Public School,970505,42.6212679,-71.8025146
111 Goodrich Street,Fitchburg,Goodrich Academy,Public School,970510,42.5781353,-71.78167069999999
67 Rindge Road,Fitchburg,McKay Arts Academy,Public School,970340,42.5939332,-71.7890393
615 Rollstone Street,Fitchburg,Memorial Intermediate,Public School,970048,42.57179,-71.811206
70 Reingold Avenue,Fitchburg,Reingold Elementary,Public School,970043,42.571385,-71.830917
376 South Street,Fitchburg,South Street Elementary,Public School,970060,42.5710331,-71.79779880000001
56 North County Rd,Florida,Abbott Memorial,Public School,980005,42.6929682,-73.032252
248 Colrain Road,Greenfield,Four Rivers Charter Public School,Charter School,4130505,42.596248,-72.62071499999999
196 South Street,Foxborough,Charles Taylor Elementary,Public School,990050,42.0486549,-71.253691
120 South Street,Foxborough,Foxborough High,Public School,990505,42.0545821,-71.250376
111 Mechanic Street,Foxborough,John J Ahern,Public School,990405,42.0701495,-71.2388553
16 Morse Street,Foxborough,Mabelle M Burrell,Public School,990015,42.0610679,-71.2061267
70 Carpenter Street,Foxborough,Vincent M Igo Elementary,Public School,990020,42.061279,-71.25026849999999
131 Central Street,Foxborough,Foxborough Regional Charter School,Charter School,4460550,42.05689,-71.244916
100 Dudley Rd,Framingham,Barbieri Elementary,Public School,1000035,42.2796342,-71.4323095
575 Pleasant Street,Framingham,Brophy,Public School,1000006,42.30646520000001,-71.4641752
215 Elm Street,Framingham,Cameron Middle School,Public School,1000302,42.33314319999999,-71.3999324
48 Frost Street,Framingham,Charlotte A Dunning,Public School,1000007,42.3215904,-71.4304676
115 A Street,Framingham,Framingham High School,Public School,1000515,42.3175031,-71.40209650000001
31 Flagg Drive,Framingham,Fuller Middle,Public School,1000305,42.2940744,-71.4172676
729 Water Street,Framingham,Hemenway,Public School,1000015,42.330416,-71.4323464
29 Upper Joclyn Avenue,Framingham,Juniper Hill School,Public School,1000001,42.3116938,-71.4104646
454 Water Street,Framingham,King Elementary School,Public School,1000005,42.32524009999999,-71.4208408
25 Elm Street,Framingham,Mary E Stapleton Elementary,Public School,1000045,42.3267309,-71.39999360000002
8 Flagg Drive,Framingham,Miriam F McCarthy School,Public School,1000050,42.2916714,-71.4162954
492 Potter Rd,Framingham,Potter Road,Public School,1000039,42.336708,-71.414839
301 Brook Street,Framingham,Walsh Middle,Public School,1000310,42.3228161,-71.4269632
169 Leland Street,Framingham,Woodrow Wilson,Public School,1000055,42.2711905,-71.39827009999999
49 Antietam St,Devens,Francis W. Parker Charter Essential School,Charter School,4780505,42.5489,-71.60629999999999
500 Lincoln Street,Franklin,Annie Sullivan Middle School,Public School,1010040,42.1091748,-71.39769609999999
137 West Central Street,Franklin,Davis Thayer,Public School,1010035,42.083771,-71.40235539999999
224 Oak Street,Franklin,Franklin Early Childhood Development Center,Public School,1010003,42.0915366,-71.4061334
218 Oak Street,Franklin,Franklin High,Public School,1010505,42.0952588,-71.41145829999999
500 Lincoln Street,Franklin,Helen Keller Elementary,Public School,1010012,42.1091748,-71.39769609999999
224 Oak Street,Franklin,Horace Mann,Public School,1010405,42.0915366,-71.4061334
551 Pond Street,Franklin,J F Kennedy Memorial,Public School,1010013,42.1085197,-71.4273824
628 Washington Street,Franklin,Jefferson Elementary,Public School,1010010,42.0524654,-71.4182607
224 Oak Street,Franklin,Oak Street Elementary,Public School,1010030,42.0915366,-71.4061334
235 Wachusett Street,Franklin,Parmenter,Public School,1010032,42.0720328,-71.3957867
628 Washington Street,Franklin,Remington Middle,Public School,1010310,42.0524654,-71.4182607
82 Industrial Blvd,Turners Falls,Franklin County Technical,Public School,8180605,42.5950392,-72.529175
100 Howland Rd,Lakeville,Apponequet Regional High,Public School,6650505,41.7920214,-70.9829723
232 Main Street,Lakeville,Assawompset Elementary School,Public School,6650002,41.847605,-70.946418
43 Bullock Road,East Freetown,Freetown Elementary School,Public School,6650001,41.7609555,-71.014764
96 Howland Road,Lakeville,Freetown-Lakeville Middle School,Public School,6650305,41.7946603,-70.9870964
112 Howland Road,Lakeville,George R Austin Intermediate School,Public School,6650015,41.7923643,-70.97963159999999
113 North Main Street,South Deerfield,Frontier Regional,Public School,6700505,42.4834203,-72.6056126
160 Elm Street,Gardner,Elm Street School,Public School,1030001,42.5750353,-71.9834932
75 E Broadway Street,Gardner,Gardner Academy for Learning and Technology,Public School,1030515,42.55666160000001,-71.97908389999999
200 Catherine Street,Gardner,Gardner High,Public School,1030505,42.5834067,-71.9793392
297 Catherine Street,Gardner,Gardner Middle School,Public School,1030405,42.5839364,-71.9785308
62 Waterford Street,Gardner,Waterford Street,Public School,1030020,42.5722308,-72.0046273
325 Middlefield Road,Chester,Chester Elementary,Public School,6720059,42.3009745,-72.9842602
12 Littleville Road,Huntington,Gateway Regional High,Public School,6720505,42.251203,-72.87013619999999
12 Littleville Road,Huntington,Gateway Regional Middle School,Public School,6720405,42.251203,-72.87013619999999
4 Littleville Road,Huntington,Littleville Elementary School,Public School,6720143,42.2509905,-72.86886799999999
11 Winter Street,Georgetown,Georgetown High School,Public School,1050505,42.7233635,-70.9882904
11 Winter Street,Georgetown,Georgetown Middle School,Public School,1050305,42.7233635,-70.9882904
68 Elm Street,Georgetown,Penn Brook,Public School,1050010,42.7135655,-70.984962
51 North Street,Georgetown,Perley Elementary,Public School,1050005,42.7262802,-70.9885379
48 Boyle Rd,Gill,Gill Elementary,Public School,6740005,42.6439884,-72.4984616
224 Turnpike Rd,Montague,Great Falls Middle,Public School,6740310,42.5883626,-72.5406567
30 Griswold Street,Turners Falls,Hillcrest Elementary School,Public School,6740015,42.59615,-72.5555547
43 Crocker Avenue,Turners Falls,Sheffield Elementary School,Public School,6740050,42.5998666,-72.5578725
222 Turnpike Rd,Montague,Turners Fall High,Public School,6740505,42.5883626,-72.5406567
190 Ashley Boulevard,New Bedford,Global Learning Charter Public School,Charter School,4960305,41.6600024,-70.92930199999999
138 Cherry Street,Gloucester,Beeman Memorial,Public School,1070010,42.6369271,-70.6723069
8 Davis St Ext,Gloucester,East Gloucester Elementary,Public School,1070020,42.6102352,-70.6471742
32 Leslie O. Johnson Rd,Gloucester,Gloucester High,Public School,1070505,42.613403,-70.676198
2 Blackburn Drive,Gloucester,Gloucester PreSchool,Public School,1070025,42.6276118,-70.65451709999999
15 Hickory Street,Gloucester,Plum Cove School,Public School,1070042,42.67315960000001,-70.6582689
32 Cherry Street,Gloucester,Ralph B O'Maley Middle,Public School,1070305,42.62898819999999,-70.67245539999999
11 Webster Street,Gloucester,Veterans Memorial,Public School,1070045,42.6201037,-70.6501502
10 Concord Street,Gloucester,West Parish,Public School,1070050,42.6195498,-70.71163609999999
PO Box 27 Tower Hill Road,Cuttyhunk,Cuttyhunk Elementary,Public School,1090005,41.4210339,-70.93245809999999
24 Providence Road,Grafton,Grafton High School,Public School,1100505,42.2105405,-71.69236719999999
22 Providence Road,Grafton,Grafton Middle,Public School,1100305,42.21234889999999,-71.6936788
105 Millbury Street,Grafton,Millbury Street Elementary School,Public School,1100200,42.1983241,-71.7096558
46 Waterville Street,North Grafton,North Grafton Elementary,Public School,1100025,42.238932,-71.701319
60 North Street,Grafton,North Street Elementary School,Public School,1100030,42.214909,-71.676774
90 Main Street,South Grafton,South Grafton Elementary,Public School,1100005,42.17922069999999,-71.69564199999999
393 East State Street,Granby,East Meadow,Public School,1110004,42.2651299,-72.4912591
385 East State Street,Granby,Granby Jr Sr High School,Public School,1110505,42.2645654,-72.49364229999999
14 West Street,Granby,West Street,Public School,1110010,42.2573876,-72.51909119999999
251 Stonehaven Rd,Fall River,Diman Regional Vocational Technical High,Public School,8210605,41.6999703,-71.1249976
57 River Rd,Andover,Gr Lawrence Regional Vocational Technical,Public School,8230605,42.69089,-71.195827
250 Pawtucket Blvd,Tyngsborough,Gr Lowell Regional Vocational Technical,Public School,8280605,42.6544951,-71.3855756
1121 Ashley Blvd,New Bedford,Gr New Bedford Vocational Technical,Public School,8250605,41.6907898,-70.9373197
21 Ferrante Avenue,Greenfield,Discovery School at Four Corners,Public School,1140025,42.609313,-72.58874399999999
125 Federal Street,Greenfield,Federal Street School,Public School,1140010,42.5914031,-72.5976498
62 Meridian Street,Greenfield,Green River,Public School,1140030,42.5782357,-72.6018332
21 Barr Avenue,Greenfield,Greenfield High,Public School,1140505,42.6052404,-72.5952992
195 Federal Street,Greenfield,Greenfield Middle,Public School,1140305,42.595645,-72.595737
70 Shelburne Rd,Greenfield,Newton School,Public School,1140035,42.58653270000001,-72.6150067
1 Place Terrace,Greenfield,The Academy of Early Learning at North Parish,Public School,1140005,42.6051527,-72.611531
P O Box 730,Groton,Boutwell School,Public School,6730001,42.6112018,-71.5745152
P O Box 738,Groton,Florence Roche School,Public School,6730010,42.6112018,-71.5745152
P O Box 730,Groton,Groton Dunstable Regional,Public School,6730505,42.6112018,-71.5745152
P O Box 727,Groton,Groton Dunstable Regional Middle,Public School,6730305,42.6112018,-71.5745152
522 Main Street,Dunstable,Swallow/Union School,Public School,6730005,42.6733287,-71.4825779
21 River Drive,Hadley,Hadley Elementary,Public School,1170015,42.3521402,-72.58626459999999
131 Russell Street,Hadley,Hopkins Academy,Public School,1170505,42.3412515,-72.5916348
464 Plymouth Street,Halifax,Halifax Elementary,Public School,1180005,41.991011,-70.858136
1 School Street,Wenham,Bessie Buker Elementary,Public School,6750007,42.6085966,-70.8854444
237 Asbury Street,South Hamilton,Cutler School,Public School,6750010,42.6210981,-70.8796392
775 Bay Rd,South Hamilton,Hamilton-Wenham Regional High,Public School,6750505,42.6296016,-70.849296
787 Bay Rd,Hamilton,Miles River Middle,Public School,6750310,42.6301369,-70.8488558
325 Bay Rd,South Hamilton,Winthrop School,Public School,6750015,42.6138674,-70.8711229
20 Johnson Rd,Chicopee,Hampden Charter School of Science,Charter School,4990305,42.1950643,-72.56220069999999
20 Johnson Road,Chicopee,Hampden Charter School of Science West,Charter School,35160305,42.1950643,-72.56220069999999
38 North Rd,Hampden,Green Meadows Elementary,Public School,6800005,42.0665175,-72.4137549
625 Main Street,Wilbraham,Mile Tree Elementary,Public School,6800025,42.1120966,-72.4349345
621 Main Street,Wilbraham,Minnechaug Regional High,Public School,6800505,42.11235,-72.4348255
300 Soule Rd,Wilbraham,Soule Road,Public School,6800030,42.0936039,-72.454532
675 Stony Hill Road,Wilbraham,Stony Hill School,Public School,6800050,42.12371,-72.4533417
85 Wilbraham Rd,Hampden,Thornton Burgess,Public School,6800305,42.0679897,-72.4358062
466 Stony Hill Rd,Wilbraham,Wilbraham Middle,Public School,6800310,42.1333316,-72.457785
19 Stage Rd,Westhampton,Hampshire Regional High,Public School,6830505,42.3040821,-72.7715118
3080 Hancock Road,Hancock,Hancock Elementary,Public School,1210005,42.57675709999999,-73.29916949999999
265 Cedar Street,Hanover,Cedar Elementary,Public School,1220004,42.1282897,-70.8688781
65 Silver Street,Hanover,Center Elementary,Public School,1220005,42.1186235,-70.8433383
287 Cedar Street,Hanover,Hanover High,Public School,1220505,42.1304153,-70.8700506
45 Whiting Street,Hanover,Hanover Middle,Public School,1220305,42.13221069999999,-70.877697
495 Hanover Street,Hanover,Sylvester,Public School,1220015,42.1167011,-70.8419299
14 Massachusetts Avenue,Harvard,Bromfield,Public School,1250505,42.4983312,-71.5852379
27 Massachusetts Avenue,Harvard,Hildreth Elementary School,Public School,1250005,42.4981021,-71.5826822
33 Main Street,Hatfield,Hatfield Elementary,Public School,1270005,42.3700959,-72.599951
34 School Street,Hatfield,Smith Academy,Public School,1270505,42.3756055,-72.6006675
551 Washington St.,Haverhill,Bartlett Kindergarten Center,Public School,1280005,42.7668299,-71.1010621
118 Montvale Street,Bradford,Bradford Elementary,Public School,1280008,42.7572015,-71.0695253
480 So. Main St,Haverhill,Caleb Dustin Hunking,Public School,1280035,42.7627838,-71.0869368
685 Washington Street,Haverhill,Consentino Middle School,Public School,1280100,42.7701258,-71.103003
26 Belmont Avenue,Haverhill,Crowell,Public School,1280020,42.7667391,-71.053912
150 Boardman Street,Haverhill,Dr Paul Nettle,Public School,1280050,42.7737403,-71.0600596
140 Boardman Street,Haverhill,Golden Hill,Public School,1280026,42.772542,-71.0603758
58 Chadwick Street,Haverhill,Greenleaf,Public School,1280027,42.7690664,-71.0789698
415 Primrose Street,Haverhill,Haverhill Alternative School,Public School,1280033,42.7888068,-71.0875726
137 Monument Street,Haverhill,Haverhill High,Public School,1280505,42.7872041,-71.10657139999999
256 Concord Street,Haverhill,John G Whittier,Public School,1280085,42.79768929999999,-71.0777251
59 Margin Street,Haverhill,Moody,Public School,1280045,42.7652855,-71.0964169
252 Concord Street,Haverhill,Pentucket Lake Elementary,Public School,1280054,42.7951081,-71.0759588
415 Primrose Street,Haverhill,TEACH,Public School,1280073,42.7888068,-71.0875726
70 Grove Street,Haverhill,Tilton,Public School,1280075,42.7751306,-71.09563969999999
645 Main Street,Haverhill,Walnut Square,Public School,1280080,42.7926789,-71.08317149999999
10 School Street,Charlemont,Hawlemont Regional,Public School,6850005,42.6014631,-72.7437106
23 Leonard Street,Boston,Helen Y. Davis Leadership Academy Charter Public School,Charter School,4190305,42.3012862,-71.05869799999999
75 Foundation Avenue,Haverhill,Hill View Montessori Charter Public School,Charter School,4550050,42.7636919,-71.1185986
1 Industrial Parkway,Easthampton,Hilltown Cooperative Charter Public School,Charter School,4500105,42.286716,-72.66014
2 Collins Street,Hingham,East Elementary School,Public School,1310005,42.2414727,-70.8667631
17 Union Street,Hingham,Hingham High,Public School,1310505,42.2275855,-70.8781257
1103 Main Street,Hingham,Hingham Middle School,Public School,1310410,42.1809197,-70.88789299999999
200 High Street,Hingham,Plymouth River,Public School,1310019,42.2134327,-70.9039121
831 Main Street,Hingham,South Elementary,Public School,1310020,42.1990833,-70.8836893
55 Downer Avenue,Hingham,Wm L Foster Elementary,Public School,1310010,42.2529848,-70.9014584
245 So. Franklin Street,Holbrook,Holbrook Jr Sr High,Public School,1330505,42.1480188,-71.0065183
339 Plymouth Street,Holbrook,John F Kennedy,Public School,1330018,42.150177,-70.9990323
719 So. Franklin Street,Holbrook,South,Public School,1330025,42.1321933,-71.006507
28 Sturbridge Road,Holland,Holland Elementary,Public School,1350005,42.0657626,-72.16109270000001
370 Hollis Street,Holliston,Holliston High,Public School,1360505,42.2055161,-71.4440951
235 Woodland Street,Holliston,Miller School,Public School,1360007,42.2070726,-71.42235040000001
235 Woodland Street,Holliston,Placentino Elementary,Public School,1360010,42.2070726,-71.42235040000001
323 Woodland Street,Holliston,Robert H. Adams Middle School,Public School,1360305,42.2044063,-71.4232069
1 Jefferson Street,Holyoke,E N White Elementary,Public School,1370045,42.2251395,-72.6264147
156 Cabot Street,Holyoke,H.B. Lawrence School,Public School,1370070,42.2030188,-72.61351719999999
500 Beech Street,Holyoke,Holyoke High,Public School,1370505,42.1999107,-72.6227601
2019 Northampton Street,Holyoke,Joseph Metcalf School,Public School,1370003,42.1934417,-72.6304121
216 West Street,Holyoke,Kelly Elementary,Public School,1370040,42.202328,-72.60044490000001
400 Jarvis Avenue,Holyoke,Lt Clayre Sullivan Elementary,Public School,1370055,42.2056874,-72.6447969
75 Kane Rd,Holyoke,Lt Elmer J McMahon Elementary,Public School,1370015,42.1845672,-72.64787989999999
210 Whiting Farms Rd,Holyoke,Maurice A Donahue Elementary,Public School,1370060,42.1768642,-72.6391518
596 South Bridge Street,Holyoke,Morgan Full Service Community School,Public School,1370025,42.1957755,-72.6078424
1916 Northampton Street,Holyoke,William R. Peck School,Public School,1370030,42.198511,-72.626952
1045 Main Street,Holyoke,Wm J Dean Vocational Technical High,Public School,1370605,42.17871419999999,-72.6298918
2200 Northampton St,Holyoke,Holyoke Community Charter School,Charter School,4530005,42.1857303,-72.6285619
25 Adin Street,Hopedale,Hopedale Jr Sr High,Public School,1380505,42.12883129999999,-71.53750339999999
6 Prospect Street,Hopedale,Memorial,Public School,1380010,42.1312671,-71.5358028
6 Park Street,Hopedale,Park Street School,Public School,1380003,42.1365421,-71.5434665
11 Ash Street,Hopkinton,Center,Public School,1390005,42.2296095,-71.5165997
14 Elm Street,Hopkinton,Elmwood,Public School,1390010,42.2253701,-71.5395644
104 Hayden Rowe Street,Hopkinton,Hopkins Elementary School,Public School,1390015,42.2169838,-71.5163898
90 Hayden Rowe Street,Hopkinton,Hopkinton High,Public School,1390505,42.2173696,-71.5194704
88 Hayden Rowe Street,Hopkinton,Hopkinton Middle School,Public School,1390305,42.2183629,-71.52194399999999
88 Hayden Rowe Street,Hopkinton,Hopkinton Pre-School,Public School,1390003,42.2183629,-71.52194399999999
119 Cottage Street,Hudson,C A Farley,Public School,1410030,42.40006690000001,-71.5751822
201 Manning Street,Hudson,David J. Quinn Middle School,Public School,1410410,42.4033654,-71.5631107
136 Forest Avenue,Hudson,Forest Avenue Elementary,Public School,1410015,42.389061,-71.5436113
69 Brigham Street,Hudson,Hudson High,Public School,1410505,42.379748,-71.579633
306 Cox Street,Hudson,Mulready Elementary,Public School,1410007,42.3971958,-71.54081839999999
180 Main Street,Hull,Hull High,Public School,1420505,42.3046548,-70.92096409999999
180 Harborview Rd,Hull,Lillian M Jacobs,Public School,1420015,42.3044527,-70.9202932
81 Central Avenue,Hull,Memorial Middle,Public School,1420305,42.2975473,-70.8852021
72 Tyng Road,Tyngsboro,Innovation Academy Charter School,Charter School,4350305,42.6586214,-71.4081403
PO Box 1320,Westborough,Central Area,Public School,3700012,42.2695216,-71.61612939999999
PO Box 1320,Westborough,East Area,Public School,3700040,42.2695216,-71.61612939999999
3 Randolph Street,Canton,Pappas Rehabilitation Hospital for Children,Public School,3700026,42.176018,-71.12529830000001
PO Box 1320,Westborough,Southeast Area,Public School,3700015,42.2695216,-71.61612939999999
PO Box 1320,Westborough,West Area,Public School,3700013,42.2695216,-71.61612939999999
134 High Street,Ipswich,Ipswich High,Public School,1440505,42.6886099,-70.8523793
130 High Street,Ipswich,Ipswich Middle School,Public School,1440305,42.6886093,-70.8518754
216 Linebrook Rd,Ipswich,Paul F Doyon Memorial,Public School,1440007,42.684169,-70.8831019
65 Central Street,Ipswich,Winthrop,Public School,1440015,42.682521,-70.839865
37 Babson Street,Mattapan,KIPP Academy Boston Charter School,Charter School,4630205,42.2751189,-71.092658
90 High Rock Street,Lynn,KIPP Academy Lynn Charter School,Charter School,4290010,42.4678753,-70.9494485
18 King Street,Norfolk,King Philip Middle School,Public School,6900510,42.0975198,-71.327921
201 Franklin Street,Wrentham,King Philip Regional High,Public School,6900505,42.0724012,-71.33203999999999
150 Main Street,Kingston,Kingston Elementary,Public School,1450005,41.9851117,-70.72016839999999
65 Second Brook Street,Kingston,Kingston Intermediate,Public School,1450020,41.985851,-70.720604
188 Summer Street,Lanesborough,Lanesborough Elementary,Public School,1480005,42.513928,-73.22022919999999
135 Butler Street,Lawrence,Alexander B Bruce,Public School,1490015,42.7028387,-71.1807984
150 Arlington Street,Lawrence,Arlington Middle School,Public School,1490017,42.71718569999999,-71.17397989999999
150 Arlington Street,Lawrence,Community Day Arlington,Public School,1490009,42.71718569999999,-71.17397989999999
255 E Haverhill Street,Lawrence,Edward F. Parthum,Public School,1490053,42.7187331,-71.1434688
75 Newton Street,Lawrence,Emily G Wetherbee,Public School,1490080,42.6943762,-71.16670909999999
100 Erving Avenue,Lawrence,Francis M Leahy,Public School,1490040,42.7145719,-71.1615386
33 Hamlet Street,Lawrence,Frost Middle School,Public School,1490525,42.6849616,-71.167827
80 Bodwell Street,Lawrence,Gerard A. Guilmette,Public School,1490022,42.6999353,-71.1767777
80 Bodwell St,Lawrence,Guilmette Middle School,Public School,1490025,42.6999353,-71.1767777
233 Haverhill Street,Lawrence,High School Learning Center,Public School,1490536,42.710193,-71.16284569999999
122 Hancock Street,Lawrence,James F Hennessey,Public School,1490020,42.6974333,-71.1771349
114 Osgood Street,Lawrence,John Breen School,Public School,1490003,42.6961292,-71.1486874
59 Alder Street,Lawrence,John K Tarbox,Public School,1490075,42.7175889,-71.1702071
41 Lexington Street,Lawrence,Lawlor Early Childhood Center,Public School,1490002,42.7162431,-71.1648222
526 Lowell Street,Lawrence,Lawrence Family Public Academy,Public School,1490011,42.7010642,-71.1823283
70-71 North Parish Road,Lawrence,Lawrence High School,Public School,1490515,42.6911401,-71.1449271
183 Haverhill Street,Lawrence,Oliver Partnership School,Public School,1490048,42.7104824,-71.16027989999999
255 East Haverhill Street,Lawrence,Parthum Middle School,Public School,1490027,42.7187331,-71.1434688
15 Union Street,Lawrence,Phoenix Academy Lawrence,Public School,1490540,42.70729679999999,-71.1530981
33 Hamlet Street,Lawrence,Robert Frost,Public School,1490018,42.6849616,-71.167827
451 Howard Street,Lawrence,Rollins Early Childhood Center,Public School,1490001,42.7141019,-71.14838639999999
58 Lawrence Street,Lawrence,School for Exceptional Studies,Public School,1490537,42.7237735,-71.1770257
165 Crawford Street,Lawrence,South Lawrence East Elementary School,Public School,1490004,42.6945747,-71.14706009999999
165 Crawford Street,Lawrence,Spark Academy,Public School,1490085,42.6945747,-71.14706009999999
60 Allen Street,Lawrence,UP Academy Leonard Middle School,Public School,1490090,42.7092198,-71.1522887
233 Haverhill Street,Lawrence,UP Academy Oliver Middle School,Public School,1490049,42.710193,-71.16284569999999
34 West Street,Lawrence,Lawrence Family Development Charter School,Charter School,4540205,42.70894380000001,-71.1735933
310 Greylock Street,Lee,Lee Elementary,Public School,1500025,42.3066014,-73.2403483
300 Greylock Street,Lee,Lee Middle/High School,Public School,1500505,42.3062539,-73.24033349999999
174 Paxton Street,Leicester,Leicester High,Public School,1510505,42.253367,-71.908666
11 Memorial School Dr,Leicester,Leicester Memorial Elementary,Public School,1510005,42.2229726,-71.9122442
70 Winslow Avenue,Leicester,Leicester Middle,Public School,1510015,42.2510361,-71.90469279999999
170 Paxton Street,Leicester,Leicester Primary School,Public School,1510010,42.2538098,-71.9070424
197 East Street,Lenox,Lenox Memorial High,Public School,1520505,42.3519255,-73.25903269999999
129 West Street,Lenox,Morris,Public School,1520015,42.355379,-73.297439
145 Pleasant Street,Leominster,Bennett,Public School,1530003,42.5212961,-71.7650483
122 Granite Street,Leominster,Center For Technical Education Innovation,Public School,1530605,42.5338455,-71.7791069
25 DeCicco Dr,Leominster,Fall Brook,Public School,1530007,42.495707,-71.767695
95 Viscoloid Ave,Leominster,Frances Drake School,Public School,1530010,42.5195427,-71.74440899999999
845 Main Street,Leominster,Johnny Appleseed,Public School,1530025,42.5516728,-71.73978699999999
98 Adams Street,Leominster,Leominster Center for Excellence,Public School,1530515,42.52494799999999,-71.7627849
122 Granite Street,Leominster,Leominster High School,Public School,1530505,42.5338455,-71.7791069
100 DeCicco Drive,Leominster,Lincoln School,Public School,1530005,42.4925388,-71.76912639999999
45 Stearns Avenue,Leominster,Northwest,Public School,1530030,42.5359229,-71.76508919999999
115 Priest Street,Leominster,Priest Street,Public School,1530040,42.5373396,-71.75301759999999
100 DeCicco Dr,Leominster,Samoset School,Public School,1530045,42.4925388,-71.76912639999999
500 Kennedy Way,Leominster,Sky View Middle School,Public School,1530320,42.5414628,-71.71583079999999
85 Montague Rd,Leverett,Leverett Elementary,Public School,1540005,42.4629652,-72.4982172
9 Philip Rd,Lexington,Bowman,Public School,1550008,42.4235331,-71.2184267
55 Middleby Rd,Lexington,Bridge,Public School,1550006,42.438059,-71.244149
55 Adams Street,Lexington,Fiske,Public School,1550015,42.4584944,-71.2202099
328 Lowell Street,Lexington,Harrington,Public School,1550030,42.44579340000001,-71.197281
17 Stedman Rd,Lexington,Jonas Clarke Middle,Public School,1550305,42.4299172,-71.22933119999999
117 Grove Street,Lexington,Joseph Estabrook,Public School,1550010,42.4782848,-71.23697829999999
328 Lowell Street,Lexington,Lexington Children's Place,Public School,1550001,42.44579340000001,-71.197281
251 Waltham Street,Lexington,Lexington High,Public School,1550505,42.442493,-71.23305599999999
7 Crosby Road,Lexington,Maria Hastings,Public School,1550035,42.4451821,-71.2534475
99 Hancock Street,Lexington,Wm Diamond Middle,Public School,1550310,42.4641439,-71.22854290000001
27 Lyman Street,Springfield,Libertas Academy Charter School,Charter School,35140305,42.1051305,-72.5938783
6 Ent Road,Hanscom Air Force Bs,Hanscom Middle,Public School,1570305,42.45615919999999,-71.2768892
6 Ent Road,Hanscom Air Force Bs,Hanscom Primary,Public School,1570006,42.45615919999999,-71.2768892
6 Ballfield Rd,Lincoln,Lincoln School,Public School,1570025,42.42113579999999,-71.3132971
390 Lincoln Rd,Sudbury,Lincoln-Sudbury Regional High,Public School,6950505,42.3970587,-71.4001153
56 King Street,Littleton,Littleton High School,Public School,1580505,42.5411961,-71.5073712
55 Russell Street,Littleton,Littleton Middle School,Public School,1580305,42.54268769999999,-71.4853062
57 Russell Street,Littleton,Russell St Elementary,Public School,1580015,42.5453887,-71.4840577
35 Shaker Lane,Littleton,Shaker Lane Elementary,Public School,1580005,42.5305334,-71.45788619999999
275 Blueberry Hill Rd,Longmeadow,Blueberry Hill,Public School,1590005,42.0580761,-72.56110029999999
837 Longmeadow Street,Longmeadow,Center,Public School,1590010,42.0495171,-72.5823951
110 Cambridge Circle,Longmeadow,Glenbrook Middle,Public School,1590017,42.0440429,-72.5493561
95 Grassy Gutter Rd,Longmeadow,Longmeadow High,Public School,1590505,42.0553511,-72.5595434
410 Williams Street,Longmeadow,Williams Middle,Public School,1590305,42.053308,-72.5661514
62 Wolf Swamp Rd,Longmeadow,Wolf Swamp Road,Public School,1590025,42.0381211,-72.56030600000001
300 Chelmsford Street,Lowell,Abraham Lincoln,Public School,1600020,42.6304162,-71.3204572
1140 Gorham Street,Lowell,B.F. Butler Middle School,Public School,1600310,42.6253471,-71.3049685
79 Wannalancit Street,Lowell,Bartlett Community Partnership,Public School,1600090,42.6457042,-71.3283647
130 Pine Street,Lowell,Charles W Morey,Public School,1600030,42.633049,-71.33193469999999
350 Adams Street,Lowell,Charlotte M Murkland Elementary,Public School,1600080,42.6465257,-71.321068
365 West Meadow Road,Lowell,Dr An Wang School,Public School,1600345,42.64866010000001,-71.3496997
175 Campbell Drive,Lowell,Dr Gertrude Bailey,Public School,1600002,42.621407,-71.3355382
149 Ennell Street,Lowell,Greenhalge,Public School,1600015,42.6573991,-71.30918640000002
110 June Street,Lowell,Henry J Robinson Middle,Public School,1600330,42.6586396,-71.30100759999999
150 Fleming Street,Lowell,James S Daley Middle School,Public School,1600315,42.6240987,-71.33677949999999
150 Draper Street,Lowell,James Sullivan Middle School,Public School,1600340,42.6407332,-71.2822145
1158 Gorham Street,Lowell,John J Shaughnessy,Public School,1600050,42.6247058,-71.30504239999999
131 Mammoth Road,Lowell,Joseph McAvinnue,Public School,1600010,42.65249,-71.3346976
560 Broadway Street,Lowell,Kathryn P. Stoklosa Middle School,Public School,1600360,42.6426611,-71.3250539
235 Powell Street,Lowell,Laura Lee Therapeutic Day School,Public School,1600085,42.6263801,-71.3233383
58 Sycamore Street,Lowell,Leblanc Therapeutic Day School,Public School,1600320,42.63377879999999,-71.2857348
50 Father Morrissette Boulevard,Lowell,Lowell High,Public School,1600505,42.6474765,-71.3119406
158 Rogers Street,Lowell,Moody Elementary,Public School,1600027,42.6368996,-71.29734069999999
425 West Meadow Road,Lowell,Pawtucketville Memorial,Public School,1600036,42.6477267,-71.3504694
115 Douglas Road,Lowell,Peter W Reilly,Public School,1600040,42.6411236,-71.2800821
145 Boylston Street,Lowell,Pyne Arts,Public School,1600018,42.6271865,-71.2886312
43 Highland Street,Lowell,Rogers STEM Academy,Public School,1600005,42.63728800000001,-71.3105829
570 Beacon Street,Lowell,S Christa McAuliffe Elementary,Public School,1600075,42.6601587,-71.3025012
125 Smith Street,Lowell,The Career Academy,Public School,1600515,42.6341405,-71.3226741
795 Wilder Street,Lowell,Washington,Public School,1600055,42.6240922,-71.3282285
206 Jackson Street,Lowell,Lowell Community Charter Public School,Charter School,4560050,42.6413674,-71.31228229999999
67 Middle Street,Lowell,Lowell Middlesex Academy Charter School,Charter School,4580505,42.6452177,-71.3097073
766 Chapin Street,Ludlow,Chapin Street Elementary School,Public School,1610020,42.17621,-72.4881398
508 East Street,Ludlow,East Street Elementary School,Public School,1610010,42.16120249999999,-72.4669613
500 Chapin Street,Ludlow,Ludlow Senior High,Public School,1610505,42.1720932,-72.465767
1 Rooney Road,Ludlow,Paul R Baird Middle,Public School,1610305,42.1723852,-72.45915769999999
486 Chapin Street,Ludlow,Veterans Park Elementary,Public School,1610023,42.17064300000001,-72.46551989999999
1079 Massachusetts Avenue,Lunenburg,Lunenburg High,Public School,1620505,42.5978255,-71.71992290000001
1079 Massachusetts Avenue,Lunenburg,Lunenburg Middle School,Public School,1620305,42.5978255,-71.71992290000001
1401 Massachusetts Avenue,Lunenburg,Lunenburg Primary School,Public School,1620010,42.6003607,-71.70142059999999
129 Northfield Road,Lunenburg,Turkey Hill Elementary School,Public School,1620025,42.6021751,-71.71849569999999
34 Hood Street,Lynn,A Drewicz Elementary,Public School,1630016,42.4605981,-70.9692985
409 Eastern Avenue,Lynn,Aborn,Public School,1630011,42.4792175,-70.9331188
90 OCallaghan Way,Lynn,Breed Middle School,Public School,1630405,42.4697,-70.984898
123 Lewis Street,Lynn,Brickett Elementary,Public School,1630020,42.4661199,-70.93099099999999
26 Regina Rd,Lynn,Capt William G Shoemaker,Public School,1630090,42.50484,-70.983587
235 O Callaghan Way,Lynn,Classical High,Public School,1630505,42.4656066,-70.9847758
40 Franklin Street,Lynn,Cobbet Elementary,Public School,1630035,42.4652592,-70.9544774
21 Dexter Street,Lynn,E J Harrington,Public School,1630045,42.4646885,-70.9390538
90 Commercial Street,Lynn,Early Childhood Center,Public School,1630004,42.4597037,-70.9591832
58 Conomo Avenue,Lynn,Edward A Sisson,Public School,1630095,42.48634089999999,-70.9582783
33 North Common Street,Lynn,Fecteau-Leary Junior/Senior High School,Public School,1630525,42.4646951,-70.9549899
24 Oakwood Avenue,Lynn,Hood,Public School,1630055,42.478402,-70.938718
1 Collins Street Terrace,Lynn,Ingalls,Public School,1630060,42.4717128,-70.93661
200 O'Callaghan Way,Lynn,Julia F Callahan,Public School,1630030,42.46669790000001,-70.98479650000002
115 Gardiner Street,Lynn,Lincoln-Thomson,Public School,1630070,42.4678724,-70.9770367
50 Goodridge Street,Lynn,Lynn English High,Public School,1630510,42.4767216,-70.9438917
80 Neptune Blvd,Lynn,Lynn Vocational Technical Institute,Public School,1630605,42.4596933,-70.95496
31 Trevett Avenue,Lynn,Lynn Woods,Public School,1630075,42.4959662,-70.9715645
70 Conomo Avenue,Lynn,Pickering Middle,Public School,1630420,42.4863838,-70.95808339999999
49 Hollingsworth St,Lynn,Robert L Ford,Public School,1630050,42.4713154,-70.94705139999999
25 Ontario Street,Lynn,Sewell-Anderson,Public School,1630085,42.4732906,-70.9679233
100 Brookline Street,Lynn,Thurgood Marshall Mid,Public School,1630305,42.47051030000001,-70.9303266
35 Walnut Street,Lynn,Tracy,Public School,1630100,42.46922199999999,-70.9665687
58 Blossom Street,Lynn,Washington Elementary School,Public School,1630005,42.461671,-70.95403999999999
100 Robinson Street,Lynn,William R Fallon,Public School,1630080,42.46877689999999,-70.970621
50 Elm Street,Lynn,Wm P Connery,Public School,1630040,42.4607246,-70.963047
5 Knoll Road,Lynnfield,Huckleberry Hill,Public School,1640010,42.52308,-71.023392
275 Essex Street,Lynnfield,Lynnfield High,Public School,1640505,42.53888329999999,-71.03314619999999
505 Main Street,Lynnfield,Lynnfield Middle School,Public School,1640405,42.5375551,-71.0515618
262 Summer Street,Lynnfield,Lynnfield Preschool,Public School,1640005,42.534008,-71.039684
262 Summer Street,Lynnfield,Summer Street,Public School,1640020,42.534008,-71.039684
1001 Commonwealth Avenue,Boston,MATCH Charter Public School,Charter School,4690505,42.352208,-71.1209549
85 Prescott Street,Worcester,Ma Academy for Math and Science School,Public School,4680505,42.2760364,-71.7997863
401 Pleasant Street,Malden,Beebe,Public School,1650003,42.4272047,-71.0789502
150 Cross Street,Malden,Ferryway,Public School,1650013,42.4216154,-71.05952669999999
74 Sylvan Street,Malden,Forestdale,Public School,1650027,42.4403405,-71.0537635
29 Wescott Street,Malden,Linden,Public School,1650047,42.4337996,-71.0339742
257 Mountain Avenue,Malden,Malden Early Learning Center,Public School,1650049,42.4315704,-71.0634204
77 Salem Street,Malden,Malden High,Public School,1650505,42.42675759999999,-71.0649918
529 Salem Street,Malden,Salemwood,Public School,1650057,42.4318023,-71.0503068
12 Story Street,Essex,Essex Elementary,Public School,6980020,42.631997,-70.790099
36 Lincoln Street,Manchester,Manchester Essex Regional High School,Public School,6980510,42.582067,-70.76624699999999
36 Lincoln Street,Manchester,Manchester Essex Regional Middle School,Public School,6980030,42.582067,-70.76624699999999
43 Lincoln Street,Manchester,Manchester Memorial Elementary,Public School,6980010,42.57979599999999,-70.764281
245 East Street,Mansfield,Everett W Robinson,Public School,1670007,42.0275164,-71.2046723
240 East Street,Mansfield,Harold L Qualters Middle,Public School,1670035,42.0291642,-71.2061647
255 East Street,Mansfield,Jordan/Jackson Elementary,Public School,1670014,42.0274925,-71.2011785
250 East Street,Mansfield,Mansfield High,Public School,1670505,42.0296536,-71.20443759999999
29 Dean Street,Mansfield,Roland Green School,Public School,1670003,42.0253042,-71.222145
6 Main Street Extension #3169,Plymouth,Map Academy Charter School,Charter School,35170505,41.95573170000001,-70.66358559999999
50 Elm Street,Marblehead,Elbridge Gerry,Public School,1680015,42.5064538,-70.8502074
9 Maple Street,Marblehead,Glover,Public School,1680020,42.4901887,-70.8792151
1 Turner Rd,Marblehead,L H Coffin,Public School,1680010,42.5083577,-70.8595282
40 Baldwin Rd,Marblehead,Malcolm L Bell,Public School,1680005,42.496747,-70.871219
2 Humphrey Street,Marblehead,Marblehead High,Public School,1680505,42.49239110000001,-70.8677792
217 Pleasant Street,Marblehead,Marblehead Veterans Middle School,Public School,1680300,42.4981591,-70.86181909999999
93 Village Street,Marblehead,Village School,Public School,1680016,42.5028593,-70.86598029999999
17 Lime Street,Marblehead,Marblehead Community Charter Public School,Charter School,4640305,42.50854,-70.853145
16 Spring Street,Marion,Sippican,Public School,1690005,41.7034755,-70.7667321
25 Union Street,Marlborough,1 LT Charles W. Whitcomb School,Public School,1700045,42.3574014,-71.5489552
444 Hosmer Street,Marlborough,Charles Jaworek School,Public School,1700030,42.3661319,-71.531684
17 Washington Street,Marlborough,Early Childhood Center,Public School,1700006,42.3489232,-71.5464044
520 Farm Road,Marlborough,Francis J Kane,Public School,1700008,42.3431627,-71.52043909999999
431 Bolton Street,Marlborough,Marlborough High,Public School,1700505,42.3623774,-71.5530398
80 Foley Road,Marlborough,Richer,Public School,1700025,42.3381582,-71.5774787
1456 Ocean Street,Marshfield,Daniel Webster,Public School,1710015,42.095534,-70.6867181
165 Eames Way,Marshfield,Eames Way School,Public School,1710005,42.132086,-70.728656
500 Furnace Street,Marshfield,Furnace Brook Middle,Public School,1710310,42.1067923,-70.7380439
60 Regis Rd,Marshfield,Gov Edward Winslow,Public School,1710020,42.07125620000001,-70.6690481
167 Forest Street,Marshfield,Marshfield High,Public School,1710505,42.1103484,-70.7373041
275 Forest Street,Marshfield,Martinson Elementary,Public School,1710025,42.11214349999999,-70.7396954
59 Hatch Street,Marshfield,South River,Public School,1710010,42.094718,-70.71409899999999
Box 1385,Oak Bluffs,Martha's Vineyard Regional High,Public School,7000505,41.420162,-70.572137
PO Box 1150,West Tisbury,Martha's Vineyard Charter School,Charter School,4660550,41.38122449999999,-70.6744723
285 Dorset Street,Springfield,Martin Luther King Jr. Charter School of Excellence,Charter School,4920005,42.0839081,-72.5359027
20 Endicott Rd,Boxford,Masconomet Regional High School,Public School,7050505,42.6277555,-70.9746949
20 Endicott Rd,Boxford,Masconomet Regional Middle School,Public School,7050405,42.6277555,-70.9746949
152 Old Barnstable Road,Mashpee,Kenneth Coombs School,Public School,1720005,41.6202095,-70.4930766
500 Old Barnstable Road,Mashpee,Mashpee High,Public School,1720505,41.6148556,-70.5067921
500 Old Barnstable Road,Mashpee,Mashpee Middle School,Public School,1720020,41.6148556,-70.5067921
150 Old Barnstable Road,Mashpee,Quashnet School,Public School,1720035,41.6234687,-70.4940355
278 Main St.,Greenfield,Massachusetts Virtual Academy at Greenfield Commonwealth Virtual School,Public School,39010900,42.58826730000001,-72.6012361
17 Barstow Street,Mattapoisett,Center,Public School,1730005,41.6599545,-70.8130271
20 Shaw Street,Mattapoisett,Old Hammondtown,Public School,1730010,41.6596417,-70.83203089999999
3 Tiger Drive,Maynard,Fowler School,Public School,1740305,42.4221226,-71.4566734
5 Tiger Drive,Maynard,Green Meadow,Public School,1740010,42.423659,-71.4582786
1 Tiger Drive,Maynard,Maynard High,Public School,1740505,42.4226962,-71.4526534
45 Adams Street,Medfield,Dale Street,Public School,1750005,42.19220989999999,-71.311418
88R South Street,Medfield,Medfield Senior High,Public School,1750505,42.1856406,-71.2961819
59 Adams Street,Medfield,Memorial School,Public School,1750003,42.1944375,-71.3124449
17 Elm Street,Medfield,Ralph Wheelock School,Public School,1750007,42.1746819,-71.29016779999999
24 Pound Street,Medfield,Thomas Blake Middle,Public School,1750305,42.1863641,-71.295116
388 High Street,Medford,Brooks School,Public School,1760130,42.4210634,-71.12814279999999
37 Hicks Avenue,Medford,Christopher Columbus,Public School,1760140,42.4014612,-71.1019159
437 Main Street,Medford,Curtis-Tufts,Public School,1760510,42.4022179,-71.1065106
3002 Mystic Valley Pkwy,Medford,John J McGlynn Elementary School,Public School,1760068,42.4088554,-71.0979679
3004 Mystic Valley Parkway,Medford,John J. McGlynn Middle School,Public School,1760320,42.4090111,-71.09801569999999
3000 Mystic Valley Pkwy,Medford,Madeleine Dugger Andrews,Public School,1760315,42.411943,-71.0983136
489 Winthrop Street,Medford,Medford High,Public School,1760505,42.4302094,-71.1251096
489 Winthrop Street,Medford,Medford Vocational Technical High,Public School,1760605,42.4302094,-71.1251096
35 Court Street,Medford,Milton Fuller Roberts,Public School,1760150,42.4217831,-71.0993041
16 Cassidy Lane,Medway,Burke/Memorial Elementary School,Public School,1770015,42.1418529,-71.40724879999999
9 Lovering Street,Medway,John D Mc Govern Elementary,Public School,1770013,42.155099,-71.41185899999999
88 Summer Street,Medway,Medway High,Public School,1770505,42.1543879,-71.4433451
45 Holliston Street,Medway,Medway Middle,Public School,1770305,42.1451044,-71.4074443
16 Franklin Street,Melrose,Early Childhood Center,Public School,1780003,42.4669353,-71.061553
37 Glendower Road,Melrose,Herbert Clark Hoover,Public School,1780017,42.4495307,-71.0498413
40 Damon Avenue,Melrose,Horace Mann,Public School,1780025,42.468417,-71.05729199999999
80 West Wyoming Avenue,Melrose,Lincoln,Public School,1780020,42.4525004,-71.0712415
360 Lynn Fells Parkway,Melrose,Melrose High,Public School,1780505,42.4643104,-71.0660204
350 Lynn Fells Parkway,Melrose,Melrose Middle,Public School,1780305,42.4632334,-71.06525239999999
253 Vinton Street,Melrose,Roosevelt,Public School,1780035,42.4657353,-71.0718605
162 First Street,Melrose,Winthrop,Public School,1780050,42.45711499999999,-71.052635
10 North Avenue,Mendon,Henry P Clough,Public School,7100179,42.1091813,-71.5560203
69 Main Street,Upton,Memorial School,Public School,7100001,42.1704413,-71.6134347
148 North Avenue,Mendon,Miscoe Hill School,Public School,7100015,42.1305005,-71.5730617
90 Pleasant Street,Upton,Nipmuc Regional High,Public School,7100510,42.1610501,-71.6162161
100 Howe Street,Methuen,Comprehensive Grammar School,Public School,1810050,42.74807,-71.173412
45 Pleasant View Street,Methuen,Donald P Timony Grammar,Public School,1810060,42.7307663,-71.17206569999999
309 Pelham Street,Methuen,Marsh Grammar School,Public School,1810030,42.7290485,-71.23252690000001
1 Ranger Rd,Methuen,Methuen High,Public School,1810505,42.7328911,-71.17173149999999
75 Pleasant Street,Methuen,Tenney Grammar School,Public School,1810055,42.7321041,-71.17743209999999
41 Mayflower Avenue,Middleborough,Henry B. Burkland Elementary School,Public School,1820008,41.8862026,-70.9114185
112 Tiger Drive,Middleborough,John T. Nichols Middle,Public School,1820305,41.8876299,-70.8941771
31 Mayflower Avenue,Middleborough,Mary K. Goode Elementary School,Public School,1820010,41.8862026,-70.9114185
219 North Main Street,Middleboro,Memorial Early Childhood Center,Public School,1820011,41.8952798,-70.905981
71 East Grove Street,Middleborough,Middleborough High,Public School,1820505,41.8803782,-70.90451209999999
143 South Main Street,Middleton,Fuller Meadow,Public School,1840003,42.58358399999999,-71.009582
26 Central Street,Middleton,Howe-Manning,Public School,1840005,42.5967697,-71.0153029
110 Congress Street,Milford,Brookside,Public School,1850065,42.1498744,-71.5293974
12-14 Walnut Street,Milford,Memorial,Public School,1850010,42.1451584,-71.524979
31 West Fountain Street,Milford,Milford High,Public School,1850505,42.14837319999999,-71.5343183
31 West Fountain Street,Milford,Shining Star Early Childhood Center,Public School,1850075,42.14837319999999,-71.5343183
66 School Street,Milford,Stacy Middle,Public School,1850305,42.1433647,-71.5203482
10 North Vine Street,Milford,Woodland,Public School,1850090,42.1588258,-71.5414203
40 Elmwood Street,Millbury,Elmwood Street,Public School,1860017,42.18752689999999,-71.7731881
12 Martin Street,Millbury,Millbury Junior/Senior High,Public School,1860505,42.2002741,-71.7668054
58 Elmwood Street,Millbury,Raymond E. Shaw Elementary,Public School,1860025,42.1855263,-71.7733983
5 Park Rd,Millis,Clyde F Brown,Public School,1870005,42.1663539,-71.3594865
245 Plain Street,Millis,Millis High School,Public School,1870505,42.1625509,-71.3579918
245 Plain Street,Millis,Millis Middle,Public School,1870020,42.1625509,-71.3579918
451 Central Ave,Milton,Charles S Pierce Middle,Public School,1890410,42.258047,-71.083563
80 Edge Hill Rd,Milton,Collicot,Public School,1890005,42.2536186,-71.0523982
44 Edge Hill Rd,Milton,Cunningham School,Public School,1890007,42.2530572,-71.053366
255 Canton Avenue,Milton,Glover,Public School,1890010,42.261465,-71.07530299999999
25 Gile Road,Milton,Milton High,Public School,1890505,42.251295,-71.087221
187 Blue Hills Pkwy,Milton,Tucker,Public School,1890020,42.26081,-71.0947489
758 Marrett Rd,Lexington,Minuteman Regional High,Public School,8300605,42.445691,-71.268911
75 Mechanic Street,Shelburne Falls,Buckland-Shelburne Regional,Public School,7170005,42.6086614,-72.7355858
22 Jacksonville Rd,Colrain,Colrain Central,Public School,7170010,42.675501,-72.697485
18 Jacobs Road,Charlemont,Heath Elementary,Public School,7170015,42.7041244,-72.8313874
26 Ashfield Road,Shelburne Falls,Mohawk Trail Regional High,Public School,7170505,42.615145,-72.7543243
808 Cape Street,Ashfield,Sanderson Academy,Public School,7170020,42.50886,-72.812861
147 Depot Road,Chatham,Chatham Elementary School,Public School,7120001,41.6864384,-69.9615558
263 South Street,Harwich,Harwich Elementary School,Public School,7120002,41.6841047,-70.0832795
75 Oak Street,Harwich,Monomoy Regional High School,Public School,7120515,41.6906401,-70.0703679
425 Crowell Road,Chatham,Monomoy Regional Middle School,Public School,7120315,41.6946397,-69.971144
21 Thompson Street,Monson,Granite Valley Middle,Public School,1910310,42.10959880000001,-72.3194498
55 Margaret Street,Monson,Monson High School,Public School,1910505,42.1153427,-72.3240665
43 Margaret Street,Monson,Quarry Hill Community School,Public School,1910025,42.1133776,-72.3241502
1050 Westminster Street,Fitchburg,Montachusett Regional Vocational Technical,Public School,8320605,42.5603617,-71.85470149999999
1781 Cold Spring Road,Williamstown,Mt Greylock Regional High,Public School,7150505,42.67147019999999,-73.24144179999999
770 Salem Street,Malden,Mystic Valley Regional Charter School,Charter School,4700105,42.43448679999999,-71.04399289999999
290 Castle Road,Nahant,Johnson,Public School,1960010,42.4212392,-70.9335624
10 Surfside Road,Nantucket,Cyrus Peirce,Public School,1970010,41.273202,-70.098742
30 Surfside Road,Nantucket,Nantucket Elementary,Public School,1970005,41.2694993,-70.0985437
10 Surfside Road,Nantucket,Nantucket High,Public School,1970505,41.273202,-70.098742
16 School Street,Baldwinville,Baldwinville Elementary,Public School,7200005,42.6050491,-72.07508
460 Baldwinville Rd,Baldwinville,Narragansett Middle,Public School,7200305,42.5876707,-72.073285
464 Baldwinville Rd,Baldwinville,Narragansett Regional High,Public School,7200505,42.5880926,-72.0730318
20 The Common,Phillipston,Phillipston Memorial,Public School,7200003,42.5486611,-72.1365998
460 Baldwinville Rd,Baldwinville,Templeton Center,Public School,7200020,42.5876707,-72.073285
403 Great Rd,Stow,Center School,Public School,7250020,42.4377062,-71.5080061
100 Mechanic Street,Bolton,Florence Sawyer School,Public School,7250025,42.430118,-71.608938
55 Hartley Road,Stow,Hale,Public School,7250310,42.441189,-71.506835
1 Hollywood Drive,Lancaster,Luther Burbank Middle School,Public School,7250305,42.4682469,-71.6757161
103 Hollywood Drive,Lancaster,Mary Rowlandson Elementary,Public School,7250010,42.4683939,-71.6758606
12 Green Road,Bolton,Nashoba Regional,Public School,7250505,42.4510837,-71.6335107
100 Littleton Road,Westford,Nashoba Valley Technical High School,Public School,8520605,42.5708388,-71.4097733
22 East Evergreen Rd,Natick,Bennett-Hemenway,Public School,1980005,42.30798069999999,-71.35847679999999
1 Jean Burke Drive,Natick,Brown,Public School,1980010,42.292335,-71.38489799999999
165 Mill Street,Natick,J F Kennedy Middle School,Public School,1980305,42.2911051,-71.3846401
99 South Main Street,Natick,Johnson,Public School,1980031,42.27845019999999,-71.3506475
41 Bacon Street,Natick,Lilja Elementary,Public School,1980035,42.2950783,-71.32742329999999
107 Eliot Street,Natick,Memorial,Public School,1980043,42.270727,-71.3233863
15 West Street,Natick,Natick High,Public School,1980505,42.2759414,-71.3613105
22 Rutledge Rd,Natick,Wilson Middle,Public School,1980310,42.3021745,-71.3572842
100 Cable Rd,North Eastham,Nauset Regional High,Public School,6600505,41.8588497,-69.96758849999999
70 Route 28,Orleans,Nauset Regional Middle,Public School,6600305,41.7839482,-69.9890825
120 Broadmeadow Rd,Needham,Broadmeadow,Public School,1990005,42.2792509,-71.20830710000001
77 Ferndale Road,Needham,High Rock School,Public School,1990410,42.2745288,-71.243928
28 Glen Gary Rd,Needham,Hillside Elementary,Public School,1990035,42.295471,-71.241961
135 Wellesley Avenue,Needham,John Eliot,Public School,1990020,42.3058847,-71.2401972
609 Webster Street,Needham,Needham High,Public School,1990505,42.2864887,-71.23131289999999
1155 Central Avenue,Needham,Newman Elementary,Public School,1990050,42.28222410000001,-71.25673259999999
200 Harris Avenue,Needham,Pollard Middle,Public School,1990405,42.2764304,-71.2266219
187 Brookline Street,Needham,William Mitchell,Public School,1990040,42.288694,-71.2232159
21 Queen Street,Dorchester,Neighborhood House Charter School,Charter School,4440205,42.2932171,-71.0533622
445 Ashley Blvd,New Bedford,Abraham Lincoln,Public School,2010095,41.669658,-70.932498
286 S Second Street,New Bedford,Alfred J Gomes,Public School,2010063,41.625888,-70.92215
561 Allen Street,New Bedford,Betsey B Winslow,Public School,2010140,41.625463,-70.944526
261 Mt Pleasant Stre,New Bedford,Carlos Pacheco,Public School,2010105,41.6566496,-70.9404789
1097 Braley Rd,New Bedford,Casimir Pulaski,Public School,2010123,41.727112,-70.94425489999999
122 Rochambeau Street,New Bedford,Charles S Ashley,Public School,2010010,41.676293,-70.9334576
212 Nemasket Street,New Bedford,Elizabeth Carter Brooks,Public School,2010015,41.6430647,-70.95350619999999
256 Court Street,New Bedford,Ellen R Hathaway,Public School,2010075,41.633151,-70.940112
145 Essex Street,New Bedford,Elwyn G Campbell,Public School,2010020,41.70193099999999,-70.937698
361 Cedar Grove,New Bedford,Hayden/McFadden,Public School,2010078,41.6545846,-70.9317707
50 Hemlock Street,New Bedford,James B Congdon,Public School,2010040,41.6220978,-70.9319597
2203 Acushnet Avenue,New Bedford,Jireh Swift,Public School,2010130,41.68245,-70.922766
705 County Street,New Bedford,John Avery Parker,Public School,2010115,41.6444422,-70.9321001
120 Katherine Street,New Bedford,John B Devalles,Public School,2010050,41.6188689,-70.9276193
71 Portland Street,New Bedford,John Hannigan,Public School,2010070,41.5997719,-70.905672
225 Hathaway Blvd,New Bedford,Keith Middle School,Public School,2010405,41.6461169,-70.9496585
230 Hathaway Blvd,New Bedford,New Bedford High,Public School,2010505,41.6445762,-70.94676439999999
81 FELTON ST,New Bedford,Normandin Middle School,Public School,2010410,41.6810412,-70.9290764
286 South Second Street,New Bedford,Renaissance Community School for the Arts,Public School,2010124,41.625888,-70.92215
119 Frederick Street,New Bedford,Roosevelt Middle School,Public School,2010415,41.610225,-70.911472
247 Elm Street,New Bedford,Sgt Wm H Carney Academy,Public School,2010045,41.6361105,-70.9327707
497 Mill Street,New Bedford,Thomas R Rodman,Public School,2010125,41.6363204,-70.9486699
181 Hillman Street,New Bedford,Trinity Day Academy,Public School,2010510,41.6392365,-70.9371611
455 County Street,New Bedford,Whaling City Junior/Senior High School,Public School,2010515,41.6347542,-70.931646
620 Brock Avenue,New Bedford,William H Taylor,Public School,2010135,41.60919699999999,-70.911425
1690 Main st.,Brockton,New Heights Charter School of Brockton,Charter School,35130305,42.0516526,-71.01129019999999
201 Wendell Rd,New Salem,Swift River,Public School,7280015,42.5216619,-72.35713919999999
70 Low Street,Newburyport,Edward G. Molin Elementary School,Public School,2040030,42.808971,-70.8874189
333 High Street,Newburyport,Francis T Bresnahan Elementary,Public School,2040005,42.8200769,-70.89629049999999
241 High Street,Newburyport,Newburyport High,Public School,2040505,42.8124589,-70.886623
70 Low Street,Newburyport,Rupert A Nock Middle,Public School,2040305,42.808971,-70.8874189
1697 Beacon Street,Waban,A E Angier,Public School,2070005,42.3265807,-71.232528
42 Vernon St,Newton,Bigelow Middle,Public School,2070305,42.3535749,-71.18141899999999
280 Cypress Street,Newton Centre,Bowen,Public School,2070015,42.3214342,-71.1875467
171 Pine Street,Auburndale,C C Burr,Public School,2070020,42.3522837,-71.2420683
229 Cabot Street,Newtonville,Cabot,Public School,2070025,42.3490686,-71.1987762
125 Meadowbrook Rd,Newton Centre,Charles E Brown Middle,Public School,2070310,42.3091817,-71.18986699999999
191 Dedham Street,Newton Highlands,Countryside,Public School,2070040,42.3129862,-71.2024417
21 Minot PL,Newtonville,F A Day Middle,Public School,2070315,42.357605,-71.21233250000002
125 Derby Street,West Newton,Franklin,Public School,2070055,42.3583035,-71.2286202
687 Watertown Street,Newtonville,Horace Mann,Public School,2070075,42.3547948,-71.2134825
10 Dolphin Rd,Newton Centre,John Ward,Public School,2070120,42.3404779,-71.17852529999999
191 Pearl Street,Newton,Lincoln-Eliot,Public School,2070070,42.35977279999999,-71.1940678
149 Pleasant Street,Newton Centre,Mason-Rice,Public School,2070080,42.3325009,-71.19935079999999
250 Brookline Street,Newton Centre,Memorial Spaulding,Public School,2070105,42.3021295,-71.1777946
100 Walnut Street,Newtonville,Newton Early Childhood Center,Public School,2070108,42.3570569,-71.20942339999999
457 Walnut Street,Newtonville,Newton North High,Public School,2070505,42.3449976,-71.2077738
140 Brandeis Rd,Newton Centre,Newton South High,Public School,2070510,42.31352340000001,-71.1865424
130 Wheeler Road,Newton Centre,Oak Hill Middle,Public School,2070320,42.3100435,-71.1915209
170 Temple Street,West Newton,Peirce,Public School,2070100,42.3419924,-71.2315034
101 Vernon Street,Newton Corner,Underwood,Public School,2070115,42.3551651,-71.1837965
141 Grove Street,Auburndale,Williams,Public School,2070125,42.3422479,-71.2496132
225 Nevada Street,Newtonville,Zervas,Public School,2070130,42.36054439999999,-71.2088945
70 Boardman Street,Norfolk,Freeman-Kennedy School,Public School,2080005,42.1239717,-71.32366979999999
232 Main Street,Norfolk,H Olive Day,Public School,2080015,42.1203893,-71.3350449
400 Main Street,Walpole,Norfolk County Agricultural,Public School,9150705,42.1640658,-71.2379349
20 Brayton Hill Terrace,North Adams,Brayton,Public School,2090035,42.6970038,-73.1384206
24 Church Street,North Adams,Colegrove Park Elementary,Public School,2090008,42.699618,-73.1090952
1130 South Church Street,North Adams,Drury High,Public School,2090505,42.66999740000001,-73.0961216
100 Phelps Avenue,North Adams,Greylock,Public School,2090015,42.69727109999999,-73.15568979999999
300 Abbott Street,North Andover,Annie L Sargent School,Public School,2110018,42.6712855,-71.0971739
111 Phillips Brks Rd,North Andover,Atkinson,Public School,2110001,42.6895953,-71.12309789999999
2 Cypress Terrace,North Andover,Franklin,Public School,2110010,42.6764922,-71.1197933
601 Main Street,North Andover,Kittredge,Public School,2110015,42.6921021,-71.1193626
430 Osgood Street,North Andover,North Andover High,Public School,2110505,42.7005778,-71.116571
495 Main Street,North Andover,North Andover Middle,Public School,2110305,42.6926265,-71.1219143
266 Waverly Rd,North Andover,Thomson,Public School,2110020,42.6958877,-71.1355804
70 Amvet Boulevard,North Attleborough,Amvet Boulevard,Public School,2120007,41.9766601,-71.3427774
45 South Washington Street,North Attleborough,Community,Public School,2120030,41.98054,-71.33475299999999
2 Jackson Street,North Attleborough,Falls,Public School,2120010,41.9723779,-71.314365
37 Landry Avenue,North Attleborough,Joseph W Martin Jr Elementary,Public School,2120013,41.996306,-71.29713199999999
1 Wilson W. Whitty Way,North Attleborough,North Attleboro High,Public School,2120505,41.9835039,-71.310594
25 School Street,North Attleborough,North Attleborough Early Learning Center,Public School,2120020,41.991937,-71.33175899999999
564 Landry Avenue,North Attleborough,North Attleborough Middle,Public School,2120305,41.98298310000001,-71.31042839999999
108 Roosevelt Avenue,North Attleborough,Roosevelt Avenue,Public School,2120015,41.9784,-71.341058
10 New School Drive,North Brookfield,North Brookfield Elementary,Public School,2150015,42.279007,-72.0809853
10 New School Drive,North Brookfield,North Brookfield High,Public School,2150505,42.279007,-72.0809853
911 Main Street,Ashby,Ashby Elementary,Public School,7350010,42.678931,-71.824322
64 Brookline Rd,Townsend,Hawthorne Brook,Public School,7350030,42.674068,-71.703425
33 Chace Avenue,Pepperell,Nissitissit Middle School,Public School,7350310,42.673736,-71.59074079999999
19 Main Street,Townsend,North Middlesex Regional,Public School,7350505,42.6519701,-71.66132560000001
4 Main Street,Pepperell,Peter Fitzpatrick School,Public School,7350515,42.6682102,-71.59732269999999
1 Whitcomb Street,Townsend,Spaulding Memorial,Public School,7350005,42.6704186,-71.7137161
66 Brookline Road,Townsend,Squannacook Early Childhood Center,Public School,7350002,42.6757736,-71.6996915
10 Hollis Street,Pepperell,Varnum Brook,Public School,7350035,42.66915849999999,-71.5894538
7 Barberry Lane,North Reading,E Ethel Little School,Public School,2170003,42.570409,-71.121038
298A Haverhill St,North Reading,J Turner Hood,Public School,2170010,42.595385,-71.09006099999999
175 Park Street,North Reading,L D Batchelder,Public School,2170005,42.5748865,-71.0802866
189 Park Street,North Reading,North Reading High,Public School,2170505,42.574258,-71.08356
189 Park Street,North Reading,North Reading Middle,Public School,2170305,42.574258,-71.08356
2 Parsons Street,Northampton,Bridge Street,Public School,2100005,42.3234106,-72.6264661
120 Jackson Street,Northampton,Jackson Street,Public School,2100020,42.33445529999999,-72.64490529999999
100 Bridge Rd,Florence,John F Kennedy Middle School,Public School,2100410,42.3458715,-72.67741749999999
20 Florence Street,Leeds,Leeds,Public School,2100025,42.3518692,-72.69827839999999
380 Elm Street,Northampton,Northampton High,Public School,2100505,42.325333,-72.650464
498 Ryan Rd,Florence,R. K. Finn Ryan Road,Public School,2100029,42.317789,-72.69266
80 Locust Street,Northampton,Smith Vocational and Agricultural High,Public School,4060705,42.331868,-72.655742
79 Bartlett Street,Northborough,Algonquin Regional High,Public School,7300505,42.325253,-71.61294199999999
26 Jefferson Rd,Northborough,Fannie E Proctor,Public School,2130015,42.3023823,-71.6524489
76 Lincoln Street,Northborough,Lincoln Street,Public School,2130003,42.3155654,-71.65622309999999
31 Maple Street,Northborough,Marguerite E Peaslee,Public School,2130014,42.3223636,-71.6278608
33 Howard Street,Northborough,Marion E Zeh,Public School,2130020,42.32418260000001,-71.6481407
145 Lincoln Street,Northborough,Robert E. Melican Middle School,Public School,2130305,42.3201332,-71.6593197
30 Cross Street,Whitinsville,Northbridge Elementary,Public School,2140005,42.1106796,-71.6601822
427 Linwood Avenue,Whitinsville,Northbridge High,Public School,2140505,42.1054509,-71.6496073
171 Linwood Avenue,Whitinsville,Northbridge Middle,Public School,2140305,42.1090706,-71.65759109999999
21 Crescent Street,Whitinsville,W Edward Balmer,Public School,2140001,42.1153366,-71.67993
100 Hemlock Rd,Wakefield,Northeast Metro Regional Vocational,Public School,8530605,42.4958017,-71.0439706
70 Hodges Cross Rd,North Adams,Charles McCann Vocational Technical,Public School,8510605,42.6642768,-73.1007254
64 West Main Street,Norton,Henri A. Yelle,Public School,2180060,41.9624137,-71.1924147
315 West Main Street,Norton,J C Solmonese,Public School,2180015,41.9527521,-71.2277957
38 Plain Street,Norton,L G Nourse Elementary,Public School,2180010,41.9684896,-71.1666106
66 West Main Street,Norton,Norton High,Public School,2180505,41.9604897,-71.1964156
215 West Main Street,Norton,Norton Middle,Public School,2180305,41.959855,-71.212434
81 High Street,Norwell,Grace Farrar Cole,Public School,2190005,42.16734049999999,-70.8803205
18 South Street,Norwell,Norwell High,Public School,2190505,42.1563265,-70.83752
328 Main Street,Norwell,Norwell Middle School,Public School,2190405,42.1561098,-70.81980539999999
102 Old Oaken Bucket Road,Norwell,William G Vinal,Public School,2190020,42.1762919,-70.796179
1170 Washington Street,Norwood,Balch,Public School,2200005,42.1769574,-71.2054359
66 Richland Road,Norwood,Charles J Prescott,Public School,2200025,42.1754913,-71.1813505
116 Garfield Avenue,Norwood,Cornelius M Callahan,Public School,2200010,42.195578,-71.1916918
1315 Washington Street,Norwood,Dr. Philip O. Coakley Middle School,Public School,2200305,42.1724684,-71.210687
33 George Willett Parkway,Norwood,F A Cleveland,Public School,2200015,42.1840317,-71.2197767
100 Westover Parkway,Norwood,George F. Willett,Public School,2200075,42.1925779,-71.2231678
165 Prospect Street,Norwood,John P Oldham,Public School,2200020,42.2040598,-71.2048119
245 Nichols Street,Norwood,Norwood High,Public School,2200505,42.1915438,-71.2154731
PO Box 1325,Oak Bluffs,Oak Bluffs Elementary,Public School,2210005,41.4542793,-70.5619724
476 North Avenue,Rochester,Old Colony Regional Vocational Technical,Public School,8550605,41.7858981,-70.8714335
135 Marion Rd,Mattapoisett,Old Rochester Regional High,Public School,7400505,41.6725674,-70.7783753
133 Marion Rd,Mattapoisett,Old Rochester Regional Jr High,Public School,7400405,41.6721628,-70.7776099
1 Old Sturbridge Village Road,Sturbridge,Old Sturbridge Academy Charter Public School,Charter School,35150205,42.1088983,-72.09875199999999
3 Dexter St,Orange,Dexter Park,Public School,2230010,42.5970266,-72.3083891
59 Dexter Street,Orange,Fisher Hill,Public School,2230015,42.5989734,-72.3094689
46 Eldredge Pkwy,Orleans,Orleans Elementary,Public School,2240005,41.7794336,-69.9941922
9 Clover Street,Oxford,Alfred M Chaffee,Public School,2260010,42.107418,-71.869529
25 Depot Road,Oxford,Clara Barton,Public School,2260005,42.151429,-71.869248
100 Carbuncle Drive,Oxford,Oxford High,Public School,2260505,42.136883,-71.86695399999999
497 Main Street,Oxford,Oxford Middle,Public School,2260405,42.1374751,-71.86875599999999
12 Carbuncle Drive,Oxford,Project C.O.F.F.E.E.,Public School,2260305,42.136883,-71.86695399999999
24 Converse Street,Palmer,Converse Middle,Public School,2270305,42.1600659,-72.3264051
4107 Main Street,Palmer,Old Mill Pond,Public School,2270008,42.1853989,-72.3421226
4105 Main Street,Palmer,Palmer High,Public School,2270505,42.18576280000001,-72.3394522
240 Sykes Street,Palmer,Pathfinder Vocational Technical,Public School,8600605,42.1868464,-72.3510543
161 Lower Westfield Road,Holyoke,Paulo Freire Social Justice Charter School,Charter School,35010505,42.176032,-72.646451
150 Lynn Street,Peabody,Captain Samuel Brown,Public School,2290005,42.5071533,-70.9503232
18 Irving Street,Peabody,Center,Public School,2290015,42.5296495,-70.9445708
85 Perkins Street,Peabody,J Henry Higgins Middle,Public School,2290305,42.5247904,-70.9392529
127 Birch Street,Peabody,John E Burke,Public School,2290007,42.5620004,-71.0241206
76 Lake Street,Peabody,John E. McCarthy,Public School,2290016,42.53923229999999,-71.0017027
485 Lowell Street,Peabody,Peabody Veterans Memorial High,Public School,2290510,42.5451034,-70.97481549999999
16 Maple St Ext,Peabody,South Memorial,Public School,2290035,42.5149713,-70.9484174
60 Northend Street,Peabody,Thomas Carroll,Public School,2290010,42.5322634,-70.9177054
15 Bow Street,Peabody,West Memorial,Public School,2290045,42.5480697,-71.0138084
50 Swampscott Avenue,Peabody,William A Welch Sr,Public School,2290027,42.51789369999999,-70.9315957
45 Amherst Rd,Pelham,Pelham Elementary,Public School,2300005,42.3785322,-72.4685279
29 Gurney Dr,Pembroke,Bryantville Elementary,Public School,2310003,42.0432826,-70.8233521
81 Learning Lane,Pembroke,Hobomock Elementary,Public School,2310010,42.0556907,-70.794462
72 Pilgrim Road,Pembroke,North Pembroke Elementary,Public School,2310015,42.0965216,-70.7783237
559 School Street,Pembroke,Pembroke Community Middle School,Public School,2310305,42.0322067,-70.8011786
80 Learning Lane,Pembroke,Pembroke High School,Public School,2310505,42.0539289,-70.7981801
104 Church Street,Merrimac,Dr Frederick N Sweetsir,Public School,7450020,42.8419791,-71.01063239999999
694 Main Street,West Newbury,Dr John C Page School,Public School,7450015,42.8082585,-70.9616374
253 School Street,Groveland,Elmer S Bagnall,Public School,7450005,42.7436281,-71.0217582
24 Union Street Ext.,Merrimac,Helen R Donaghue School,Public School,7450010,42.8279025,-71.0053886
20 Main Street,West Newbury,Pentucket Regional Middle,Public School,7450405,42.7823047,-71.0095152
24 Main Street,West Newbury,Pentucket Regional Sr High,Public School,7450505,42.7828716,-71.0128956
31 Spring Street,Petersham,Petersham Center,Public School,2340005,42.4856789,-72.1911061
65 Lincoln Street,Springfield,Phoenix Academy Public Charter High School Springfield,Charter School,35080505,42.1111593,-72.576261
59 Nichols St,Chelsea,Phoenix Charter Academy,Charter School,4930505,42.4068124,-71.03831869999999
51-59 Summer Street,Everett,Pioneer Charter School of Science,Charter School,4940205,42.4080749,-71.051247
97 Main Street,Saugus,Pioneer Charter School of Science II (PCSS-II),Charter School,35060505,42.46533429999999,-71.018483
37 School Road,Bernardston,Bernardston Elementary,Public School,7500006,42.6653739,-72.5609892
104 Main Street,Northfield,Northfield Elementary,Public School,7500008,42.6983221,-72.4542469
7 Brattleboro Rd,Leyden,Pearl E Rhodes Elementary,Public School,7500007,42.6973833,-72.62479739999999
97 F Sumner Turner Rd,Northfield,Pioneer Valley Regional,Public School,7500505,42.6835256,-72.4857621
41 Winchester Road,Warwick,Warwick Community School,Public School,7500009,42.6867735,-72.3400265
317 Russell Street,Hadley,Pioneer Valley Chinese Immersion Charter School,Charter School,4970205,42.3528932,-72.5581574
15 Mulligan Drive,South Hadley,Pioneer Valley Performing Arts Charter Public School,Charter School,4790505,42.2412757,-72.5993508
180 Connecticut Avenue,Pittsfield,Allendale,Public School,2360010,42.45870499999999,-73.220147
517 West Street,Pittsfield,Crosby,Public School,2360065,42.4493061,-73.2729117
84 Egremont Avenue,Pittsfield,Egremont,Public School,2360035,42.437286,-73.229957
950 North Street,Pittsfield,John T Reid Middle,Public School,2360305,42.466371,-73.2433549
100 Burbank Street,Pittsfield,Morningside Community School,Public School,2360055,42.4569217,-73.2444515
300 East Street,Pittsfield,Pittsfield High,Public School,2360505,42.4464619,-73.248282
86 Brooks Avenue,Pittsfield,Robert T. Capeless Elementary School,Public School,2360045,42.480579,-73.2604915
200 West Union Street,Pittsfield,Silvio O Conte Community,Public School,2360105,42.4556835,-73.2685266
75 Lebanon Avenue,Pittsfield,Stearns,Public School,2360090,42.437099,-73.298692
96 Valentine Road,Pittsfield,Taconic High,Public School,2360510,42.4593226,-73.27392329999999
501 Pomeroy Avenue,Pittsfield,Theodore Herberg Middle,Public School,2360310,42.4346699,-73.2415089
50 Bushey Road,Pittsfield,Williams,Public School,2360100,42.4347561,-73.2089768
68 Messenger Street,Plainville,Anna Ware Jackson,Public School,2380010,42.0125541,-71.30240839999999
72 Messenger Street,Plainville,Beatrice H Wood Elementary,Public School,2380005,42.0133693,-71.3012447
25 Alden Street,Plymouth,Cold Spring,Public School,2390005,41.9627574,-70.67793739999999
860 Federal Furnace Road,Plymouth,Federal Furnace School,Public School,2390011,41.8924082,-70.7108911
258 Standish Avenue,Plymouth,Hedge,Public School,2390010,41.97382959999999,-70.6874667
1181 State Rd,Plymouth,Indian Brook,Public School,2390012,41.8894631,-70.54264169999999
70 Manomet Point Rd,Plymouth,Manomet Elementary,Public School,2390015,41.9212271,-70.55482959999999
6 Lincoln Street,Plymouth,Nathaniel Morton Elementary,Public School,2390030,41.9536938,-70.6591742
117 Long Pond Road,Plymouth,Plymouth Commun Intermediate,Public School,2390405,41.9244138,-70.65670589999999
117 Long Pond Road,Plymouth,Plymouth Early Childhood Center,Public School,2390003,41.9244138,-70.65670589999999
41 Obery Street,Plymouth,Plymouth North High,Public School,2390505,41.9441068,-70.6516901
490 Long Pond Road,Plymouth,Plymouth South High,Public School,2390515,41.8813912,-70.6191249
488 Long Pond Road,Plymouth,Plymouth South Middle,Public School,2390305,41.8814882,-70.61926830000002
178 Bourne Rd,Plymouth,South Elementary,Public School,2390046,41.8364791,-70.6046298
170 Plympton Rd,Plymouth,West Elementary,Public School,2390047,41.9450803,-70.7214944
80 Crescent Street,Plympton,Dennett Elementary,Public School,2400010,41.9722903,-70.7978464
50 Essex Street,Cambridge,Prospect Hill Academy Charter School,Charter School,4870550,42.3674732,-71.1008925
12 Winslow Street,Provincetown,Provincetown Schools,Public School,2420020,42.0513985,-70.1896366
76 School House Dr.,Gilbertville,Hardwick Elementary,Public School,7530005,42.31750900000001,-72.18470490000001
8 Elm Street,Hubbardston,Hubbardston Center,Public School,7530010,42.4737041,-72.00732239999999
800 South Street,Barre,IB School of Quabbin,Public School,7530515,42.40060889999999,-72.1149375
15 Memorial Drive,New Braintree,New Braintree Grade,Public School,7530020,42.3173841,-72.12240330000002
1 Deacon Allen Drive,Oakham,Oakham Center,Public School,7530025,42.357772,-72.046988
800 South Street,Barre,Quabbin Regional High School,Public School,7530505,42.40060889999999,-72.1149375
800 South Street,Barre,Quabbin Regional Middle School,Public School,7530405,42.40060889999999,-72.1149375
105 Ruggles Lane,Barre,Ruggles Lane,Public School,7530030,42.429571,-72.1087019
284 Old West Brookfield Road,Warren,Quaboag Regional High,Public School,7780505,42.2204467,-72.1882041
284 Old West Brookfield Road,Warren,Quaboag Regional Middle Innovation School,Public School,7780305,42.2204467,-72.1882041
51 Schoolhouse Drive,West Warren,Warren Elementary,Public School,7780005,42.19097,-72.22331419999999
89 North Main Street,West Brookfield,West Brookfield Elementary,Public School,7780010,42.23904719999999,-72.1346482
100 Brooks Avenue,Quincy,Amelio Della Chiesa Early Childhood Center,Public School,2430005,42.23808349999999,-71.01262539999999
1084 Sea Street,Quincy,Atherton Hough,Public School,2430040,42.2678772,-70.9572274
86 Hollis Avenue,Quincy,Atlantic Middle,Public School,2430305,42.2777498,-71.02452699999999
225 Fenno Street,Quincy,Beechwood Knoll Elementary,Public School,2430020,42.26931270000001,-71.0054258
50 Calvin Rd,Quincy,Broad Meadows Middle,Public School,2430310,42.2601317,-70.9855181
875 Hancock Street,Quincy,Central Middle,Public School,2430315,42.261517,-71.0113318
701 Furnace Brook,Quincy,Charles A Bernazzani Elementary,Public School,2430025,42.255508,-71.023116
148 Billings Rd,Quincy,Francis W Parker,Public School,2430075,42.2761734,-71.0216336
300 Granite Street,Quincy,Lincoln-Hancock Community School,Public School,2430035,42.2426363,-71.01130549999999
4 Agawam Rd,Quincy,Merrymount,Public School,2430060,42.2649919,-70.99306299999999
8 Belmont Street,Quincy,Montclair,Public School,2430065,42.2707176,-71.0321328
316 Hancock Street,Quincy,North Quincy High,Public School,2430510,42.277473,-71.0286343
60 Lancaster Street,Quincy,Point Webster Middle,Public School,2430325,42.2477519,-70.9910611
100 Coddington Street,Quincy,Quincy High,Public School,2430505,42.2540795,-71.0005078
444 Granite Street,Quincy,Reay E Sterling Middle,Public School,2430320,42.240153,-71.01588
333 Palmer Street,Quincy,Snug Harbor Community School,Public School,2430090,42.2553659,-70.966031
50 Huckins Avenue,Quincy,Squantum,Public School,2430095,42.2974384,-71.01197719999999
205 Beale Street,Quincy,Wollaston School,Public School,2430110,42.2633203,-71.0235731
444 Green Street,Gardner,Pathways Early College Innovation School,Public School,7550515,42.5932876,-71.9839855
PO Box 680,Orange,Ralph C Mahar Regional,Public School,7550505,42.590354,-72.3097914
444 Green Street,Gardner,The Gateway to College,Public School,7550525,42.5932876,-71.9839855
60 Vesey Rd,Randolph,Elizabeth G Lyons Elementary,Public School,2440020,42.1782798,-71.0430849
20 Hurley Dr,Randolph,J F Kennedy Elementary,Public School,2440018,42.1646651,-71.0347002
123 Reed Street,Randolph,Margaret L Donovan,Public School,2440015,42.1893685,-71.0699667
30 Lou Courtney Dr,Randolph,Martin E Young Elementary,Public School,2440040,42.1523474,-71.04351849999999
225 High Street,Randolph,Randolph Community Middle,Public School,2440410,42.1828666,-71.0669092
70 Memorial Pkwy,Randolph,Randolph High,Public School,2440505,42.1623831,-71.0449824
16 Edgemont Avenue,Reading,Alice M Barrows,Public School,2460002,42.5217086,-71.1240704
89 Birch Meadow Dr,Reading,Arthur W Coolidge Middle,Public School,2460305,42.5376752,-71.1115117
27 A B Lord Dr,Reading,Birch Meadow,Public School,2460005,42.5379914,-71.1132159
333 Charles Street,Reading,J Warren Killam,Public School,2460017,42.5418669,-71.09076379999999
365 Summer Avenue,Reading,Joshua Eaton,Public School,2460010,42.5145975,-71.1106217
62 Oakland Road,Reading,RISE PreSchool,Public School,2460001,42.5346779,-71.1092388
62 Oakland Road,Reading,Reading Memorial High,Public School,2460505,42.5346779,-71.1092388
45 Temple Street,Reading,Walter S Parker Middle,Public School,2460310,42.5218597,-71.114535
85 Sunset Rock Lane,Reading,Wood End Elementary School,Public School,2460020,42.5514127,-71.1163815
107 Newhall Street,Revere,A. C. Whelan Elementary School,Public School,2480003,42.41986470000001,-71.0203986
68 Tuckerman Street,Revere,Abraham Lincoln,Public School,2480025,42.4168479,-71.0100157
15 Everard Street,Revere,Beachmont Veterans Memorial School,Public School,2480013,42.3956609,-70.992323
176 Garfield Avenue,Revere,Garfield Elementary School,Public School,2480056,42.4034418,-70.99270260000002
176 Garfield Avenue,Revere,Garfield Middle School,Public School,2480057,42.4034418,-70.99270260000002
395 Revere Street,Revere,Paul Revere,Public School,2480050,42.4182479,-70.9954491
101 School Street,Revere,Revere High,Public School,2480505,42.412153,-71.00789089999999
140 American Legion Highway,Revere,Rumney Marsh Academy,Public School,2480014,42.4139913,-71.0044472
15 Everard Street,Revere,Seacoast School,Public School,2480520,42.3956609,-70.992323
51 Park Avenue,Revere,Staff Sargent James J. Hill Elementary School,Public School,2480035,42.4103553,-71.0138365
107 Newhall Street,Revere,Susan B. Anthony Middle School,Public School,2480305,42.41986470000001,-71.0203986
1831 State Rd,Richmond,Richmond Consolidated,Public School,2490005,42.3832979,-73.36755289999999
6 Resnik Road,Plymouth,Rising Tide Charter Public School,Charter School,4830305,41.94960589999999,-70.7122637
2 Perry Way,Newburyport,River Valley Charter School,Charter School,4820050,42.8071965,-70.8866965
16 Pine Street,Rochester,Rochester Memorial,Public School,2500005,41.7460013,-70.8669082
93 George Street,Rockland,Jefferson Elementary School,Public School,2510060,42.124389,-70.9097389
100 Taunton Avenue,Rockland,John W Rogers Middle,Public School,2510305,42.1285252,-70.91778649999999
1 Col Brian Duffy Way,Rockland,Memorial Park,Public School,2510020,42.1267951,-70.921458
733 Summer Street,Rockland,R Stewart Esten,Public School,2510025,42.1103549,-70.8973371
52 MacKinlay Way,Rockland,Rockland Senior High,Public School,2510505,42.1285981,-70.9172944
34 Jerdens Lane,Rockport,Rockport Elementary,Public School,2520005,42.65082049999999,-70.6129524
24 Jerdens Lane,Rockport,Rockport High,Public School,2520510,42.6509632,-70.6126795
26 Jerdens Lane,Rockport,Rockport Middle,Public School,2520305,42.6523474,-70.61043889999999
86 Pond Road,Rowe,Rowe Elementary,Public School,2530005,42.7031256,-72.8883456
120 Fisher Avenue,Roxbury,Roxbury Preparatory Charter School,Charter School,4840505,42.3276359,-71.1051341
160 Joan Street,Springfield,Sabis International Charter School,Charter School,4410505,42.127138,-72.484518
53 Liberty Hill Avenue,Salem,Bates,Public School,2580003,42.5344851,-70.90578529999999
10 Skerry Street,Salem,Carlton,Public School,2580015,42.531847,-70.8904768
29 Highland Avenue,Salem,Collins Middle,Public School,2580305,42.5144755,-70.90518469999999
33 Loring Ave,Salem,Horace Mann Laboratory,Public School,2580030,42.5037276,-70.8917196
79 Willson Street,Salem,Nathaniel Bowditch,Public School,2580025,42.5071389,-70.90935329999999
2 East India Square,Salem,New Liberty Innovation School,Public School,2580510,42.5223717,-70.8937341
25 Memorial Drive,Salem,Salem Early Childhood,Public School,2580001,42.5279993,-70.88110759999999
77 Willson Street,Salem,Salem High,Public School,2580505,42.506067,-70.91105
28 St. Peter Street,Salem,Salem Prep High School,Public School,2580515,42.5234244,-70.8929361
211 Lafayette Street,Salem,Saltonstall School,Public School,2580050,42.5135437,-70.89164629999999
1 Frederick Street,Salem,Witchcraft Heights,Public School,2580070,42.516503,-70.9203941
45 Congress St.,Salem,Salem Academy Charter School,Charter School,4850485,42.51821,-70.8876156
151 Route 130,Sandwich,Forestdale School,Public School,2610002,41.6970302,-70.504806
260 Quaker Mtg Hs Rd,East Sandwich,Oak Ridge,Public School,2610025,41.71955699999999,-70.4632592
365 Quaker Meetinghouse Rd,East Sandwich,Sandwich High,Public School,2610505,41.7356479,-70.4589094
365 Quaker Meetinghouse Road,Sandwich,Sandwich STEM Academy,Public School,2610305,41.7356479,-70.4589094
22 Richard Street,Saugus,Ballard School,Public School,2620001,42.4530548,-70.9900479
25 Dow Street,Saugus,Belmonte Saugus Middle,Public School,2620305,42.45821979999999,-71.01429949999999
25 Talbot Street,Saugus,Douglas Waybright,Public School,2620067,42.4624971,-71.0138657
266 Main Street,Saugus,Oaklandvale,Public School,2620050,42.46895290000001,-71.0303465
1 Pearce Memorial Drive,Saugus,Saugus High,Public School,2620505,42.4609016,-71.0226477
39 Hurd Avenue,Saugus,Veterans Memorial,Public School,2620065,42.45404730000001,-71.0040021
26 Chapel Rd,Savoy,Emma L Miller Elementary School,Public School,2630010,42.569092,-72.9955425
1 Aberdeen Dr,Scituate,Cushing Elementary,Public School,2640007,42.2044368,-70.7679883
327 First Parish Rd,Scituate,Gates Intermediate School,Public School,2640305,42.1997387,-70.7550947
72 Ann Vinal Rd,Scituate,Hatherly Elementary,Public School,2640010,42.2154992,-70.763567
54 Vinal Avenue,Scituate,Jenkins Elementary School,Public School,2640015,42.1905738,-70.7307518
606 C J Cushing Hwy,Scituate,Scituate High School,Public School,2640505,42.1997191,-70.76936800000001
266 Tilden Rd,Scituate,Wampatuck Elementary,Public School,2640020,42.2101021,-70.7430634
650 Newman Avenue,Seekonk,Dr. Kevin M. Hurley Middle School,Public School,2650405,41.8599459,-71.3309373
445 Cole Street,Seekonk,George R Martin,Public School,2650007,41.7974646,-71.3165542
165 Newman Avenue,Seekonk,Mildred Aitken School,Public School,2650015,41.8448045,-71.33436979999999
261 Arcade Avenue,Seekonk,Seekonk High,Public School,2650505,41.836587,-71.3319995
51 Gage Street,Worcester,Seven Hills Charter School,Charter School,4860105,42.2656381,-71.78964359999999
30 Cottage Street,Sharon,Cottage Street,Public School,2660005,42.1188249,-71.17233829999999
45 Wilshire Drive,Sharon,East Elementary,Public School,2660010,42.114117,-71.1484399
454 South Main Street,Sharon,Heights Elementary,Public School,2660015,42.104068,-71.20446299999999
181 Pond Street,Sharon,Sharon High,Public School,2660505,42.113537,-71.177652
75 Mountain Street,Sharon,Sharon Middle,Public School,2660305,42.1067566,-71.1651364
100 Cook Street,Billerica,Shawsheen Valley Vocational Technical High School,Public School,8710605,42.5473542,-71.2186828
1 Pine Hill Ln,Sherborn,Pine Hill,Public School,2690010,42.2481168,-71.3645347
1 Maple Avenue,Shrewsbury,Beal School,Public School,2710005,42.2955564,-71.71572499999999
1 Florence Street,Shrewsbury,Calvin Coolidge,Public School,2710015,42.2653329,-71.7486763
57 Floral Street,Shrewsbury,Floral Street School,Public School,2710020,42.2839528,-71.69378809999999
45 Oak Street,Shrewsbury,Oak Middle School,Public School,2710030,42.2823385,-71.7268371
15 Parker Road,Shrewsbury,Parker Road Preschool,Public School,2710040,42.2798105,-71.75108279999999
28 Sherwood Avenue,Shrewsbury,Sherwood Middle School,Public School,2710305,42.283971,-71.72316599999999
64 Holden Street,Shrewsbury,Shrewsbury Sr High,Public School,2710505,42.3033378,-71.7444391
123 Spring Street,Shrewsbury,Spring Street,Public School,2710035,42.3053964,-71.7022774
58 Grafton Street,Shrewsbury,Walter J Paton,Public School,2710025,42.29263419999999,-71.7132122
23 West Pelham Rd,Shutesbury,Shutesbury Elementary,Public School,2720005,42.44883,-72.428421
675 Washington Street,Haverhill,Silver Hill Horace Mann Charter School,Charter School,4770010,42.7692837,-71.1012069
260 Pembroke Street,Kingston,Silver Lake Regional High,Public School,7600505,42.0151253,-70.78533610000001
256 Pembroke Street,Kingston,Silver Lake Regional Middle School,Public School,7600405,42.01638450000001,-70.7864917
500 Rindge Road,Fitchburg,A North Central Charter Essential (District),Charter School,4740505,42.602125,-71.802004
538 Chace Street,Somerset,Chace Street,Public School,2730005,41.7634929,-71.1476101
580 Whetstone Hill Road,Somerset,North Elementary,Public School,2730008,41.77549399999999,-71.14065889999999
1141 Brayton Avenue,Somerset,Somerset Middle School,Public School,2730305,41.738922,-71.16390729999999
700 Read Street,Somerset,South,Public School,2730015,41.7371076,-71.16571809999999
625 County Street,Somerset,Somerset Berkley Regional High School,Public School,7630505,41.7423325,-71.14873779999999
290 Washington Street,Somerville,Albert F. Argenziano School at Lincoln Park,Public School,2740087,42.3792598,-71.0988921
5 Meacham Street,Somerville,Arthur D Healey,Public School,2740075,42.39762229999999,-71.095253
201 Willow Avenue,Somerville,Benjamin G Brown,Public School,2740015,42.3973541,-71.1141142
150 Glen Street,Somerville,Capuano Early Childhood Center,Public School,2740005,42.3825979,-71.0867152
50 Cross Street,Somerville,E Somerville Community,Public School,2740111,42.3860302,-71.0870489
8 Bonair Street,Somerville,Full Circle High School,Public School,2740510,42.3875792,-71.0873238
5 Cherry Street,Somerville,John F Kennedy,Public School,2740083,42.3893453,-71.1155519
8 Bonair Street,Somerville,Next Wave Junior High,Public School,2740410,42.3875792,-71.0873238
81 Highland Avenue,Somerville,Somerville High,Public School,2740505,42.3872021,-71.0969716
177 Powderhouse Blvd,Somerville,West Somerville Neighborhood,Public School,2740115,42.4062363,-71.12656609999999
115 Sycamore Street,Somerville,Winter Hill Community,Public School,2740120,42.3916682,-71.0988003
100 Mosier Street,South Hadley,Michael E. Smith Middle School,Public School,2780305,42.2458669,-72.5779871
101 Mosier Street,South Hadley,Mosier,Public School,2780020,42.2446243,-72.5762268
267 Granby Rd,South Hadley,Plains Elementary,Public School,2780015,42.2261458,-72.5734274
153 Newton Street,South Hadley,South Hadley High,Public School,2780505,42.2253142,-72.5885754
750 Winter Street,Framingham,Joseph P Keefe Technical High School,Public School,8290605,42.27680770000001,-71.4355363
100 Longwater Circle,Norwell,South Shore Charter Public School,Charter School,4880550,42.156762,-70.88181999999999
476 Webster Street,Hanover,So Shore Vocational Technical High,Public School,8730605,42.147676,-70.86311979999999
34 Pomeroy Meadow Rd,Southampton,William E Norris,Public School,2750005,42.241228,-72.7241416
28 Cordaville Road,Southborough,Albert S. Woodward Memorial School,Public School,2760050,42.3046396,-71.5289466
53 Parkerville Road,Southborough,Margaret A Neary,Public School,2760020,42.2950765,-71.5391947
60 Richards Road,Southborough,Mary E Finn School,Public School,2760008,42.27459830000001,-71.53395069999999
49 Parkerville Rd,Southborough,P Brent Trottier,Public School,2760305,42.2992657,-71.5421142
220 Charlton Street,Southbridge,Charlton Street,Public School,2770005,42.0812759,-72.0225141
120 Eastford Road,Southbridge,Eastford Road,Public School,2770010,42.067439,-72.03923499999999
132 Torrey Road,Southbridge,Southbridge High School,Public School,2770515,42.085354,-72.0066697
132 Torrey Road,Southbridge,Southbridge Middle School,Public School,2770315,42.085354,-72.0066697
156 West Street,Southbridge,West Street,Public School,2770020,42.0784176,-72.0497084
250 Foundry Street,South Easton,Southeastern Regional Vocational Technical,Public School,8720605,42.0103895,-71.0813143
PO Box 326,Sheffield,Monterey,Public School,7650015,42.1099885,-73.35514359999999
P O Box 219,Sheffield,Mt Everett Regional,Public School,7650505,42.1099885,-73.35514359999999
PO Box 326,Sheffield,New Marlborough Central,Public School,7650018,42.1099885,-73.35514359999999
PO Box 326,Sheffield,South Egremont,Public School,7650030,42.1099885,-73.35514359999999
PO Box 326,Sheffield,Undermountain,Public School,7650035,42.1099885,-73.35514359999999
57 Old Muggett Hill Road,Charlton,Bay Path Regional Vocational Technical High School,Public School,8760605,42.13236149999999,-71.96584589999999
409 Main Road,Granville,Granville Village School,Public School,7660215,42.0664911,-72.85338349999999
94 Powder Mill Rd,Southwick,Powder Mill School,Public School,7660315,42.062513,-72.75343769999999
93 Feeding Hills Rd,Southwick,Southwick Regional School,Public School,7660505,42.0606216,-72.74743339999999
80 Powder Mill Rd,Southwick,Woodland School,Public School,7660010,42.0614518,-72.7546815
302 Main Street,Spencer,David Prouty High,Public School,7670505,42.2503188,-71.97778629999999
410 East Main Street,East Brookfield,East Brookfield Elementary,Public School,7670008,42.2293711,-72.036935
73 Ash Street,Spencer,Knox Trail Middle School,Public School,7670415,42.2415727,-71.9835398
60 Paxton Road,Spencer,Wire Village School,Public School,7670040,42.2595494,-71.9747747
474 Armory St,Springfield,Alfred G. Zanetti Montessori Magnet School,Public School,2810095,42.120648,-72.588621
285 Tiffany Street,Springfield,Alice B Beal Elementary,Public School,2810175,42.0735609,-72.5444218
1395 Allen Street,Springfield,Arthur T Talmadge,Public School,2810165,42.0957142,-72.51430979999999
111 Seymour Avenue,Springfield,Balliet Middle School,Public School,2810360,42.1253186,-72.5288356
471 Plainfield Street,Springfield,Brightwood,Public School,2810025,42.119991,-72.61471
355 Plainfield Street,Springfield,Chestnut Accelerated Middle School (North),Public School,2810365,42.116945,-72.61362869999999
355 Plainfield Street,Springfield,Chestnut Accelerated Middle School (South),Public School,2810366,42.116945,-72.61362869999999
355 Plainfield Street,Springfield,Chestnut Accelerated Middle School (Talented and Gifted),Public School,2810367,42.116945,-72.61362869999999
34 Kopernik Street,Springfield,Conservatory of the Arts,Public School,2810475,42.1545254,-72.4865275
1801 Parker Street,Springfield,Daniel B Brunton,Public School,2810035,42.0969849,-72.491852
15 Catherine Street,Springfield,Early Childhood Education Center,Public School,2810001,42.112253,-72.563808
426 Armory Street,Springfield,Edward P. Boland School,Public School,2810010,42.1200675,-72.5870114
433 Walnut Street,Springfield,Elias Brookings,Public School,2810030,42.0988907,-72.56414410000001
46 Oakland Street,Springfield,Forest Park Middle,Public School,2810325,42.0866422,-72.56387649999999
90 Cherokee Dr,Springfield,Frank H Freedman,Public School,2810075,42.109347,-72.524794
58 Hartford Ter,Springfield,Frederick Harris,Public School,2810080,42.0927863,-72.5354055
303 Homestead Avenue,Holyoke,Gateway to College at Holyoke Community College,Public School,2810575,42.195533,-72.6511419
1 Armory Square,Springfield,Gateway to College at Springfield Technical Community College,Public School,2810580,42.1088724,-72.5785599
200 Birnie Avenue,Springfield,German Gerena Community School,Public School,2810195,42.11818,-72.610501
50 Morrison Terrace,Springfield,Glenwood,Public School,2810065,42.132375,-72.5906299
120 Ashland Avenue,Springfield,Glickman Elementary,Public School,2810068,42.1140629,-72.51133659999999
415 State Street,Springfield,High School Of Commerce,Public School,2810510,42.1067105,-72.57854189999999
20 Lydia Street,Springfield,Hiram L Dorman,Public School,2810050,42.1281371,-72.5393409
43 Homer Street,Springfield,Homer Street,Public School,2810085,42.112961,-72.5552927
95 Milton Street,Indian Orchard,Indian Orchard Elementary,Public School,2810100,42.1549347,-72.49388619999999
1385 Berkshire Avenue,Springfield,John F Kennedy Middle,Public School,2810328,42.1547056,-72.5115878
1015 Wilbraham Rd,Springfield,John J Duggan Middle,Public School,2810320,42.1145204,-72.52652429999999
31 Kensington Avenue,Springfield,Kensington International School,Public School,2810110,42.091068,-72.561717
962 Carew Street,Springfield,Liberty,Public School,2810115,42.1294997,-72.57993929999999
"Alderman Bldg, 37 Alderman Street",Springfield,Liberty Preparatory Academy,Public School,2810560,42.1142045,-72.5895973
732 Chestnut Street,Springfield,Lincoln,Public School,2810120,42.1198422,-72.6055767
180 Cooley Street,Springfield,M Marcus Kiley Middle,Public School,2810330,42.0983625,-72.5006336
319 Cortland Street,Springfield,Margaret C Ells,Public School,2810060,42.12320380000001,-72.55601159999999
190 Surrey Rd,Springfield,Mary A. Dryden Veterans Memorial School,Public School,2810125,42.0991809,-72.5437621
315 No Branch Pkwy,Springfield,Mary M Lynch,Public School,2810140,42.128242,-72.51165
50 Empress Ct,Springfield,Mary M Walsh,Public School,2810155,42.1150257,-72.4935078
1435 Carew Street,Springfield,Mary O Pottenger,Public School,2810145,42.1380712,-72.5679739
22 Mulberry Street,Springfield,Milton Bradley School,Public School,2810023,42.1015263,-72.58038150000002
55 Catherine Street,Springfield,Rebecca M Johnson,Public School,2810055,42.1131392,-72.5645012
1300 State Street,Springfield,Roger L. Putnam Vocational Technical Academy,Public School,2810620,42.1206253,-72.550355
60 Alton Street,Springfield,STEM Middle Academy,Public School,2810350,42.1192867,-72.5513224
24 Bowles Park,Springfield,Samuel Bowles,Public School,2810020,42.143939,-72.5632119
36 Margaret Street,Springfield,South End Middle School,Public School,2810355,42.09672399999999,-72.583933
1840 Roosevelt Avenue,Springfield,Springfield Central High,Public School,2810500,42.1307481,-72.54818639999999
